<?xml version="1.0" encoding="UTF-8"?>
<kml xmlns="http://www.opengis.net/kml/2.2">
<Document>
<name>GNSS Positions</name>
<Style id="track"><LineStyle><color>ff0000ff</color><width>2</width></LineStyle></Style>
<Placemark><name>Track</name><styleUrl>#track</styleUrl><LineString><coordinates>
-8.524536,41.1563,-4936.7
-8.524451,41.156388,-4936.7
-8.524366,41.156476,-4936.7
-8.531833,41.173833,-1901.9
-8.531775,41.173983,-1890.3
-8.531718,41.174134,-1878.7
-8.539436,41.190379,-7256.8
-8.53943,41.190579,-7262.6
-8.539425,41.19078,-7268.5
-8.539419,41.19098,-7274.4
-8.539413,41.191181,-7280.3
-8.539407,41.191382,-7286.2
-8.539402,41.191584,-7292.1
-8.539396,41.191786,-7297.8
-8.539391,41.191989,-7303.7
-8.539386,41.192192,-7309.5
-8.53938,41.192396,-7315.2
-8.539374,41.192599,-7321
-8.539369,41.192803,-7326.8
-8.539364,41.193008,-7332.6
-8.539358,41.193213,-7338.4
-8.539353,41.193419,-7344.2
-8.539347,41.193624,-7349.9
-8.539342,41.19383,-7355.6
-8.539337,41.194037,-7361.4
-8.539332,41.194244,-7367
-8.539327,41.194451,-7372.8
-8.539322,41.194658,-7378.6
-8.539317,41.194866,-7384.2
-8.539312,41.195075,-7389.9
-8.539307,41.195284,-7395.7
-8.539302,41.195493,-7401.2
-8.539297,41.195703,-7406.8
-8.539292,41.195913,-7412.4
-8.539288,41.196123,-7418
-8.539283,41.196334,-7423.6
-8.539279,41.196545,-7429.1
-8.539274,41.196756,-7434.7
-8.53927,41.196968,-7440.2
-8.539265,41.19718,-7445.9
-8.53926,41.197393,-7451.4
-8.539256,41.197606,-7457.1
-8.539252,41.197819,-7462.5
-8.524254,41.199886,-7467.7
-8.513348,41.183648,-3481.3
-8.513246,41.183822,-3475.7
-8.513145,41.183998,-3469.9
-8.513044,41.184174,-3464.2
-8.512943,41.184351,-3458.5
-8.512841,41.184527,-3452.7
-8.512738,41.184704,-3446.8
-8.512636,41.18488,-3441
-8.512534,41.185058,-3435.1
-8.512432,41.185235,-3429.1
-8.512329,41.185413,-3423.2
-8.512226,41.185591,-3417.2
-8.512124,41.185769,-3411.1
-8.512021,41.185948,-3405
-8.511918,41.186127,-3398.8
-8.511815,41.186306,-3392.7
-8.511712,41.186486,-3386.6
-8.511608,41.186666,-3380.4
-8.511505,41.186846,-3374.1
-8.511401,41.187027,-3367.9
-8.511297,41.187207,-3361.6
-8.511194,41.187388,-3355.3
-8.51109,41.18757,-3349
-8.510985,41.187752,-3342.8
-8.510881,41.187935,-3336.4
-8.510777,41.188117,-3330
-8.510673,41.1883,-3323.5
-8.51057,41.188483,-3317
-8.510465,41.188667,-3310.7
-8.51036,41.188851,-3304.2
-8.510255,41.189036,-3297.6
-8.51015,41.189221,-3291
-8.510045,41.189406,-3284.4
-8.50994,41.189591,-3277.7
-8.509834,41.189776,-3271
-8.509728,41.189962,-3264.3
-8.509622,41.190148,-3257.6
-8.509516,41.190334,-3250.9
-8.50941,41.190521,-3244.1
-8.509304,41.190708,-3237.1
-8.509198,41.190895,-3230.3
-8.509091,41.191083,-3223.4
-8.508985,41.191271,-3216.4
-8.508878,41.191459,-3209.5
-8.508772,41.191648,-3202.6
-8.508665,41.191837,-3195.5
-8.508558,41.192026,-3188.5
-8.508451,41.192216,-3181.4
-8.508344,41.192406,-3174.2
-8.508236,41.192596,-3167.1
-8.508128,41.192787,-3160
-8.508021,41.192978,-3152.8
-8.507913,41.19317,-3145.5
-8.507805,41.193361,-3138.3
-8.507697,41.193553,-3130.9
-8.507589,41.193746,-3123.6
-8.50748,41.193939,-3116.2
-8.507372,41.194132,-3108.9
-8.507263,41.194325,-3101.5
-8.507154,41.194519,-3094.2
-8.507046,41.194713,-3086.8
-8.506936,41.194907,-3079.4
-8.506827,41.195103,-3071.9
-8.506717,41.195297,-3064.6
-8.506608,41.195493,-3056.9
-8.506498,41.195688,-3049.4
-8.506388,41.195885,-3041.9
-8.506278,41.196081,-3034.2
-8.506168,41.196279,-3026.5
-8.506057,41.196476,-3018.8
-8.505946,41.196674,-3011
-8.505836,41.196872,-3003.3
-8.505726,41.19707,-2995.3
-8.505615,41.197269,-2987.6
-8.505504,41.197468,-2979.7
-8.505393,41.197666,-2971.8
-8.505282,41.197866,-2963.9
-8.505171,41.198065,-2956
-8.505061,41.198265,-2948
-8.504949,41.198466,-2939.9
-8.504838,41.198667,-2931.8
-8.504726,41.198868,-2923.7
-8.504615,41.199069,-2915.5
-8.504503,41.199271,-2907.4
-8.504391,41.199473,-2899.2
-8.504279,41.199676,-2890.9
-8.504167,41.199879,-2882.6
-8.504055,41.200083,-2874.4
-8.489292,41.201046,-242
-8.489133,41.20125,-226
-8.488976,41.201454,-210.5
-8.488818,41.201658,-194.8
-8.488662,41.201863,-179.4
-8.488504,41.202068,-163.8
-8.488344,41.202273,-147.6
-8.488185,41.202479,-131.7
-8.488026,41.202685,-115.9
-8.487865,41.202891,-99.6
-8.4877,41.203097,-82.6
-8.487539,41.203304,-66.3
-8.487379,41.203511,-50.3
-8.487223,41.203718,-34.9
-8.487063,41.203926,-18.8
-8.486902,41.204134,-2.4
-8.486743,41.204342,13.7
-8.486583,41.204551,29.9
-8.486425,41.20476,45.6
-8.48626,41.204969,62.6
-8.486096,41.205179,79.4
-8.485946,41.205389,93.8
-8.485784,41.205599,110.3
-8.485623,41.20581,126.9
-8.485461,41.206021,143.4
-8.485299,41.206232,160
-8.485136,41.206443,176.5
-8.484974,41.206655,193.2
-8.48481,41.206868,209.9
-8.484647,41.20708,226.5
-8.484484,41.207294,243.3
-8.48432,41.207507,260
-8.484157,41.207721,276.8
-8.483993,41.207935,293.7
-8.483829,41.208149,310.6
-8.483661,41.208364,328.1
-8.483495,41.208579,345.3
-8.483329,41.208794,362.4
-8.483165,41.209011,379.4
-8.482998,41.209227,396.7
-8.482833,41.209443,413.8
-8.482667,41.209659,431.2
-8.4825,41.209877,448.3
-8.482335,41.210094,465.5
-8.482169,41.210311,482.7
-8.482004,41.21053,499.9
-8.481838,41.210748,517.2
-8.481676,41.210967,533.7
-8.48151,41.211185,551.3
-8.481343,41.211405,568.8
-8.481176,41.211624,586.4
-8.481009,41.211844,603.9
-8.480841,41.212064,621.6
-8.480674,41.212285,639.2
-8.480507,41.212506,656.9
-8.480341,41.212727,674.3
-8.48017,41.212949,692.4
-8.480002,41.213171,710.2
-8.479834,41.213393,728.2
-8.479665,41.213615,746.1
-8.479496,41.213838,764.1
-8.479327,41.214061,782.1
-8.479159,41.214285,800.2
-8.478989,41.214508,818.3
-8.47882,41.214732,836.4
-8.47865,41.214956,854.4
-8.478479,41.215181,872.7
-8.47831,41.215406,891
-8.478139,41.215631,909.1
-8.477969,41.215857,927.4
-8.477798,41.216083,945.7
-8.477627,41.21631,964
-8.477455,41.216536,982.4
-8.477284,41.216763,1000.8
-8.477112,41.216991,1019.3
-8.476941,41.217218,1037.8
-8.476769,41.217446,1056.4
-8.476596,41.217675,1075
-8.476424,41.217904,1093.6
-8.476251,41.218133,1112.2
-8.476078,41.218362,1130.9
-8.475905,41.218592,1149.7
-8.475733,41.218822,1168.5
-8.475567,41.219051,1186.9
-8.475394,41.219282,1205.8
-8.47522,41.219513,1224.5
-8.475047,41.219744,1243.3
-8.474874,41.219976,1262.1
-8.474701,41.220208,1280.8
-8.474528,41.22044,1299.6
-8.474355,41.220673,1318.4
-8.47418,41.220905,1337.5
-8.474006,41.221139,1356.7
-8.47383,41.221372,1376.1
-8.473654,41.221606,1395.7
-8.473477,41.22184,1415.3
-8.4733,41.222075,1434.8
-8.473124,41.22231,1454.3
-8.472947,41.222545,1473.8
-8.47277,41.222781,1493.2
-8.472594,41.223016,1512.7
-8.472417,41.223253,1532.2
-8.472241,41.223489,1551.7
-8.472064,41.223726,1571.4
-8.471887,41.223963,1591.1
-8.471709,41.224201,1611
-8.471531,41.224438,1630.7
-8.471353,41.224677,1650.5
-8.471176,41.224916,1670.1
-8.470998,41.225154,1689.9
-8.47082,41.225393,1709.8
-8.470641,41.225633,1729.7
-8.470463,41.225873,1749.7
-8.470282,41.226113,1769.8
-8.470103,41.226354,1790.1
-8.469922,41.226595,1810.4
-8.469743,41.226836,1830.5
-8.469564,41.227077,1850.6
-8.469386,41.227319,1870.6
-8.469207,41.227562,1890.7
-8.469028,41.227805,1910.8
-8.468849,41.228048,1931.1
-8.468668,41.228291,1951.5
-8.468486,41.228535,1971.9
-8.468305,41.228779,1992.6
-8.468123,41.229023,2013.3
-8.467941,41.229267,2034
-8.467758,41.229512,2054.7
-8.467576,41.229757,2075.4
-8.467393,41.230003,2096.3
-8.46721,41.230249,2116.9
-8.467028,41.230495,2137.6
-8.466845,41.230741,2158.4
-8.466663,41.230988,2179.2
-8.46648,41.231235,2200
-8.466298,41.231483,2220.8
-8.466115,41.23173,2241.7
-8.465932,41.231979,2262.6
-8.465749,41.232227,2283.7
-8.465566,41.232476,2304.7
-8.465383,41.232725,2325.8
-8.465199,41.232974,2346.8
-8.465016,41.233224,2368.1
-8.464832,41.233474,2389.2
-8.464647,41.233724,2410.5
-8.464463,41.233975,2431.9
-8.464277,41.234226,2453.4
-8.464092,41.234478,2474.8
-8.463906,41.234729,2496.3
-8.463721,41.234981,2517.7
-8.463536,41.235234,2539.2
-8.46335,41.235486,2560.7
-8.463165,41.235739,2582.2
-8.462979,41.235993,2603.6
-8.462793,41.236247,2625.4
-8.462605,41.236501,2647.2
-8.462418,41.236755,2669
-8.462231,41.237009,2690.8
-8.462044,41.237265,2712.7
-8.461856,41.23752,2734.6
-8.461669,41.237776,2756.5
-8.461482,41.238033,2778.4
-8.461294,41.238289,2800.4
-8.461107,41.238546,2822.3
-8.460919,41.238803,2844.3
-8.460731,41.239062,2866.4
-8.460543,41.239319,2888.4
-8.460354,41.239578,2910.5
-8.460166,41.239837,2932.5
-8.459978,41.240096,2954.7
-8.459789,41.240356,2976.8
-8.459601,41.240615,2999
-8.459405,41.240875,3022.3
-8.459216,41.241135,3044.8
-8.459026,41.241395,3067.3
-8.458836,41.241656,3089.8
-8.458646,41.241917,3112.3
-8.458456,41.242179,3134.9
-8.458266,41.242441,3157.6
-8.458075,41.242703,3180.3
-8.457884,41.242965,3203
-8.457693,41.243227,3225.9
-8.457502,41.24349,3248.7
-8.45731,41.243753,3271.6
-8.457118,41.244018,3294.5
-8.456927,41.244281,3317.3
-8.456735,41.244546,3340.2
-8.456543,41.24481,3363.3
-8.45635,41.245075,3386.4
-8.456158,41.245341,3409.5
-8.455965,41.245607,3432.6
-8.455773,41.245873,3455.8
-8.455579,41.246139,3478.9
-8.455386,41.246406,3502.2
-8.455192,41.246673,3525.5
-8.454999,41.246941,3548.7
-8.454805,41.247209,3572
-8.45461,41.247477,3595.4
-8.454416,41.247745,3619
-8.454222,41.248014,3642.4
-8.454027,41.248283,3666
-8.454195,41.256329,-1809.1
-8.454415,41.256028,-1820.5
-8.454634,41.255728,-1831.9
-8.454853,41.255429,-1843.3
-8.455071,41.25513,-1854.6
-8.45529,41.254831,-1865.9
-8.455509,41.254532,-1877.3
-8.455727,41.254234,-1888.5
-8.455944,41.253937,-1899.9
-8.456161,41.25364,-1911.1
-8.456379,41.253342,-1922.4
-8.456596,41.253045,-1933.7
-8.456812,41.252749,-1945.1
-8.457029,41.252452,-1956.3
-8.457245,41.252157,-1967.6
-8.45746,41.251861,-1978.8
-8.457676,41.251566,-1990
-8.457891,41.251271,-2001.3
-8.458105,41.250977,-2012.5
-8.45832,41.250683,-2023.7
-8.458534,41.250389,-2034.9
-8.458748,41.250096,-2046.3
-8.458962,41.249803,-2057.5
-8.459176,41.249511,-2068.7
-8.459389,41.249219,-2079.8
-8.459602,41.248927,-2091
-8.459814,41.248636,-2102.1
-8.460026,41.248345,-2113.3
-8.460238,41.248054,-2124.3
-8.46045,41.247764,-2135.4
-8.460669,41.247474,-2147.6
-8.46088,41.247184,-2158.5
-8.46109,41.246894,-2169.4
-8.461301,41.246606,-2180.5
-8.46151,41.246317,-2191.4
-8.461719,41.246029,-2202.3
-8.461929,41.245741,-2213.2
-8.462138,41.245454,-2224.1
-8.462347,41.245166,-2235.1
-8.462556,41.244879,-2246.2
-8.462765,41.244593,-2257.1
-8.462973,41.244307,-2268.2
-8.463183,41.244021,-2279.3
-8.463391,41.243736,-2290.4
-8.463599,41.243451,-2301.6
-8.463808,41.243167,-2312.8
-8.464016,41.242883,-2324
-8.464216,41.242599,-2333.8
-8.464423,41.242315,-2344.8
-8.464639,41.242031,-2357.3
-8.464846,41.241749,-2368.4
-8.465052,41.241466,-2379.3
-8.465258,41.241184,-2390.2
-8.465463,41.240901,-2401.1
-8.465667,41.24062,-2411.8
-8.465872,41.240338,-2422.7
-8.466076,41.240058,-2433.5
-8.46628,41.239777,-2444.2
-8.466483,41.239497,-2455
-8.466685,41.239217,-2465.6
-8.466888,41.238938,-2476.3
-8.467091,41.238659,-2487
-8.467292,41.238381,-2497.6
-8.467494,41.238102,-2508.3
-8.467695,41.237824,-2518.9
-8.467898,41.237546,-2529.7
-8.468099,41.237269,-2540.5
-8.468301,41.236992,-2551.3
-8.468502,41.236715,-2561.9
-8.468703,41.236439,-2572.6
-8.468904,41.236163,-2583.3
-8.469104,41.235887,-2593.9
-8.469304,41.235612,-2604.5
-8.469504,41.235337,-2615.2
-8.469704,41.235062,-2625.7
-8.469902,41.234788,-2636.3
-8.470102,41.234515,-2647
-8.470301,41.234242,-2657.8
-8.470501,41.233969,-2668.5
-8.470699,41.233697,-2679.2
-8.470897,41.233424,-2689.8
-8.471095,41.233152,-2700.3
-8.471292,41.232881,-2711
-8.47149,41.23261,-2721.5
-8.471686,41.232338,-2732
-8.471883,41.232068,-2742.6
-8.472079,41.231798,-2753.1
-8.472275,41.231528,-2763.5
-8.47247,41.231259,-2774
-8.472665,41.230989,-2784.5
-8.472859,41.230721,-2795.1
-8.473053,41.230452,-2805.4
-8.473247,41.230184,-2815.9
-8.473441,41.229916,-2826.2
-8.473635,41.229649,-2836.7
-8.473828,41.229383,-2847
-8.474021,41.229116,-2857.4
-8.474215,41.22885,-2867.7
-8.474408,41.228584,-2878.2
-8.474601,41.228318,-2888.5
-8.474794,41.228053,-2899
-8.474988,41.227788,-2909.4
-8.475179,41.227523,-2919.7
-8.47537,41.227259,-2929.9
-8.475561,41.226996,-2940.2
-8.475751,41.226732,-2950.5
-8.475942,41.226469,-2960.8
-8.476132,41.226206,-2971.1
-8.476323,41.225944,-2981.5
-8.476514,41.225682,-2991.8
-8.476704,41.22542,-3002.2
-8.476893,41.225159,-3012.4
-8.477082,41.224897,-3022.5
-8.477269,41.224636,-3032.6
-8.477458,41.224376,-3042.7
-8.477645,41.224116,-3052.9
-8.477833,41.223856,-3062.9
-8.47802,41.223597,-3073
-8.478208,41.223338,-3083.2
-8.478396,41.223079,-3093.5
-8.478583,41.222821,-3103.9
-8.47877,41.222563,-3114
-8.478957,41.222305,-3124.2
-8.479143,41.222048,-3134.3
-8.47933,41.221791,-3144.4
-8.479515,41.221535,-3154.6
-8.4797,41.221278,-3164.6
-8.479885,41.221022,-3174.8
-8.48007,41.220767,-3184.9
-8.480255,41.220512,-3195.1
-8.48044,41.220257,-3205.2
-8.480624,41.220003,-3215.4
-8.480808,41.219748,-3225.4
-8.480991,41.219495,-3235.4
-8.481174,41.219242,-3245.3
-8.481356,41.218988,-3255.3
-8.481538,41.218736,-3265.1
-8.48172,41.218484,-3275
-8.481902,41.218232,-3285
-8.482084,41.21798,-3294.9
-8.482265,41.217729,-3304.8
-8.482446,41.217478,-3314.8
-8.482627,41.217227,-3324.6
-8.482808,41.216977,-3334.4
-8.482987,41.216727,-3344.3
-8.483168,41.216478,-3354.1
-8.483347,41.216229,-3364
-8.483527,41.215981,-3373.8
-8.483706,41.215732,-3383.6
-8.483884,41.215484,-3393.4
-8.484063,41.215237,-3403.3
-8.484243,41.214989,-3413.4
-8.484422,41.214742,-3423.2
-8.4846,41.214495,-3433
-8.484778,41.214249,-3442.8
-8.484956,41.214002,-3452.6
-8.485133,41.213757,-3462.4
-8.485311,41.213511,-3472.1
-8.485488,41.213266,-3481.9
-8.485665,41.213022,-3491.7
-8.485841,41.212778,-3501.5
-8.486018,41.212534,-3511.2
-8.486194,41.21229,-3521.1
-8.48637,41.212047,-3530.9
-8.486545,41.211805,-3540.6
-8.48672,41.211562,-3550.3
-8.486894,41.21132,-3559.9
-8.487068,41.211078,-3569.3
-8.487242,41.210836,-3578.9
-8.487415,41.210595,-3588.5
-8.487588,41.210354,-3598.2
-8.487762,41.210114,-3607.8
-8.487935,41.209873,-3617.5
-8.488108,41.209633,-3627.1
-8.488281,41.209394,-3636.8
-8.488453,41.209155,-3646.4
-8.488625,41.208916,-3656
-8.488797,41.208678,-3665.4
-8.488968,41.20844,-3675
-8.489139,41.208202,-3684.4
-8.489311,41.207965,-3694
-8.489481,41.207727,-3703.4
-8.489652,41.207491,-3712.9
-8.489822,41.207255,-3722.5
-8.489992,41.207019,-3732
-8.490162,41.206783,-3741.5
-8.490331,41.206548,-3750.7
-8.4905,41.206313,-3760
-8.490668,41.206079,-3769.3
-8.490836,41.205844,-3778.6
-8.491004,41.20561,-3787.8
-8.491172,41.205378,-3797.2
-8.49134,41.205145,-3806.6
-8.491508,41.204912,-3816
-8.491676,41.20468,-3825.5
-8.491843,41.204447,-3834.9
-8.49201,41.204215,-3844.3
-8.492176,41.203983,-3853.7
-8.492343,41.203752,-3862.9
-8.492509,41.203521,-3872.2
-8.492675,41.20329,-3881.6
-8.492841,41.20306,-3890.8
-8.493006,41.20283,-3900.1
-8.493171,41.202601,-3909.4
-8.493335,41.202372,-3918.8
-8.4935,41.202144,-3928
-8.493665,41.201916,-3937.3
-8.493829,41.201687,-3946.6
-8.493993,41.20146,-3955.8
-8.494157,41.201232,-3965
-8.49432,41.201006,-3974.2
-8.494482,41.20078,-3983.2
-8.494644,41.200553,-3992.3
-8.494805,41.200327,-4001.5
-8.494967,41.200102,-4010.4
-8.495129,41.199877,-4019.6
-8.49529,41.199651,-4028.7
-8.49545,41.199427,-4037.7
-8.49561,41.199203,-4046.7
-8.495771,41.19898,-4055.7
-8.495931,41.198756,-4064.9
-8.496092,41.198532,-4073.9
-8.496252,41.19831,-4083
-8.496411,41.198087,-4092
-8.496571,41.197866,-4101.2
-8.496731,41.197643,-4110.1
-8.496891,41.197421,-4119.2
-8.49705,41.1972,-4128.1
-8.497208,41.196979,-4137.1
-8.497366,41.196758,-4146
-8.497523,41.196538,-4154.9
-8.49768,41.196317,-4163.7
-8.497837,41.196098,-4172.5
-8.497994,41.195879,-4181.3
-8.49815,41.19566,-4190
-8.498307,41.195442,-4198.8
-8.498462,41.195223,-4207.6
-8.498618,41.195005,-4216.3
-8.498774,41.194787,-4225.1
-8.498928,41.19457,-4233.9
-8.499083,41.194353,-4242.7
-8.499238,41.194137,-4251.3
-8.499393,41.193922,-4260.1
-8.499546,41.193706,-4268.8
-8.4997,41.19349,-4277.6
-8.499854,41.193276,-4286.4
-8.500007,41.193061,-4295.3
-8.500161,41.192847,-4304.1
-8.500315,41.192633,-4312.8
-8.500468,41.192419,-4321.7
-8.500621,41.192206,-4330.5
-8.500774,41.191993,-4339.1
-8.500926,41.19178,-4347.9
-8.501077,41.191568,-4356.6
-8.501229,41.191356,-4365.3
-8.501381,41.191145,-4374.1
-8.501534,41.190934,-4383
-8.501685,41.190723,-4391.7
-8.501836,41.190512,-4400.4
-8.501987,41.190303,-4409.1
-8.502137,41.190093,-4417.7
-8.502287,41.189884,-4426.2
-8.502436,41.189675,-4434.8
-8.502585,41.189466,-4443.4
-8.502733,41.189257,-4451.8
-8.502882,41.189049,-4460.3
-8.50303,41.188841,-4468.8
-8.503178,41.188634,-4477.2
-8.503327,41.188427,-4485.7
-8.503475,41.18822,-4494.3
-8.503623,41.188013,-4502.8
-8.50377,41.187807,-4511.3
-8.503918,41.187601,-4519.6
-8.504063,41.187396,-4527.9
-8.504209,41.187191,-4536.3
-8.504355,41.186986,-4544.5
-8.504501,41.186781,-4552.9
-8.504647,41.186577,-4561.3
-8.504792,41.186373,-4569.6
-8.504938,41.18617,-4578.1
-8.505083,41.185966,-4586.3
-8.505228,41.185764,-4594.5
-8.505373,41.185561,-4602.8
-8.505516,41.185359,-4611.1
-8.50566,41.185158,-4619.3
-8.505803,41.184956,-4627.6
-8.505947,41.184755,-4635.9
-8.50609,41.184555,-4644.1
-8.506233,41.184354,-4652.5
-8.506376,41.184154,-4660.6
-8.506518,41.183955,-4668.8
-8.50666,41.183756,-4677
-8.506803,41.183557,-4685.3
-8.506944,41.183359,-4693.4
-8.507084,41.183161,-4701.5
-8.507225,41.182962,-4709.7
-8.507366,41.182765,-4717.9
-8.507506,41.182568,-4726
-8.507646,41.182372,-4734.1
-8.507786,41.182175,-4742.2
-8.507926,41.181979,-4750.5
-8.508066,41.181784,-4758.7
-8.508205,41.181589,-4766.8
-8.508344,41.181393,-4775
-8.508484,41.181199,-4783.1
-8.508622,41.181004,-4791.3
-8.508761,41.18081,-4799.4
-8.508899,41.180616,-4807.5
-8.509036,41.180423,-4815.5
-8.509174,41.18023,-4823.5
-8.509311,41.180037,-4831.7
-8.509449,41.179845,-4839.7
-8.509587,41.179653,-4847.8
-8.509724,41.179461,-4855.7
-8.509861,41.17927,-4863.8
-8.509997,41.179079,-4871.7
-8.510132,41.178889,-4879.6
-8.510268,41.178698,-4887.6
-8.510403,41.178508,-4895.5
-8.510539,41.178318,-4903.4
-8.510673,41.178129,-4911.3
-8.510808,41.17794,-4919.2
-8.510943,41.177751,-4927.1
-8.511077,41.177562,-4935.1
-8.511211,41.177374,-4942.9
-8.511344,41.177186,-4950.7
-8.511477,41.176999,-4958.4
-8.51161,41.176811,-4966.1
-8.511743,41.176624,-4973.7
-8.511875,41.176437,-4981.4
-8.512007,41.176251,-4989.1
-8.512139,41.176064,-4996.9
-8.51227,41.175879,-5004.5
-8.512401,41.175694,-5012.2
-8.512532,41.175509,-5019.9
-8.512664,41.175325,-5027.6
-8.512795,41.17514,-5035.2
-8.512926,41.174956,-5042.9
-8.513056,41.174773,-5050.5
-8.513185,41.17459,-5058.1
-8.513315,41.174407,-5065.7
-8.513444,41.174225,-5073.4
-8.513573,41.174042,-5080.9
-8.513702,41.173861,-5088.6
-8.513833,41.17368,-5096.3
-8.513962,41.173499,-5104
-8.514091,41.173318,-5111.7
-8.51422,41.173137,-5119.4
-8.514348,41.172958,-5126.9
-8.514476,41.172778,-5134.5
-8.514604,41.172598,-5142.1
-8.514731,41.172419,-5149.6
-8.514858,41.17224,-5157.2
</coordinates></LineString></Placemark>
<Placemark><name>Average Position</name><Point><coordinates>-8.488846086005829,41.2107258206997,-2236.2</coordinates></Point></Placemark>
</Document></kml>