     4.01           N: GNSS NAV DATA    M: MIXED            RINEX VERSION / TYPE
sbf2rin-16.2.0                          20260417 105924 UTC PGM / RUN BY / DATE 
    18                                                      LEAP SECONDS        
                                                            END OF HEADER       
> ION G27 LNAV
    2026 04 08 12 55 00 1.676380634308E-08 1.490116119385E-08-1.192092895508E-07
    -5.960464477539E-08 1.085440000000E+05 3.276800000000E+04-2.621440000000E+05
    -6.553600000000E+04 0.000000000000E+00
> EPH G01 CNAV
G01 2026 04 16 15 30 00 2.963482402265E-04-8.242295734817E-12 0.000000000000E+00
    -4.519939422607E-03-1.193710937500E+02 4.670551690082E-09 1.434742443833E+00
    -6.171874701977E-06 1.698347099591E-03 8.774921298027E-06 5.153620943009E+03
     3.447000000000E+05 9.220093488693E-08 2.383439599278E+00 5.587935447693E-08
     9.576371465739E-01 2.057812500000E+02 1.588708026581E-01-8.302432207391E-09
    -5.835957376764E-10 5.172944966109E-14-2.000000000000E+00 3.000000000000E+00
    -2.000000000000E+00 1.000000000000E+00-9.313225746155E-09 7.000000000000E+00
    -2.910383045673E-10 5.937181413174E-09-1.746229827404E-10-2.910383045673E-10
     4.009620000000E+05 2.414000000000E+03
> EPH G03 CNAV
G03 2026 04 16 15 30 00 5.011110333726E-04-1.432098883924E-11 0.000000000000E+00
     5.549430847168E-03 2.214062500000E+01 3.534254358737E-09-6.310809273280E-01
     1.070089638233E-06 6.701081816573E-03 1.364108175039E-05 5.153608186678E+03
     3.609000000000E+05-5.308538675308E-08-2.911517247306E+00 1.350417733192E-07
     9.942114802817E-01 1.334414062500E+02 1.209449845595E+00-7.611153412855E-09
     3.601935749368E-10-5.308099870407E-14-2.000000000000E+00 2.000000000000E+00
    -3.000000000000E+00 1.000000000000E+00 1.396983861923E-09 7.000000000000E+00
     5.529727786779E-10-2.008164301515E-09 1.862645149231E-09 5.005858838558E-09
     4.009620000000E+05 2.414000000000E+03
> EPH G14 CNAV
G14 2026 04 16 15 30 00 7.434660510626E-04 1.314504061156E-12 0.000000000000E+00
    -7.112503051758E-03 1.019023437500E+02 4.726089717750E-09-1.016898977810E+00
     5.203299224377E-06 6.967307592276E-03 1.310370862484E-05 5.153664942149E+03
     3.717000000000E+05 1.443549990654E-07 2.291078534789E-01-1.303851604462E-08
     9.428450318172E-01 1.173593750000E+02-2.727774049710E+00-8.140639753800E-09
     3.328710082708E-10 5.752803103903E-14-2.000000000000E+00 3.000000000000E+00
    -3.000000000000E+00 1.000000000000E+00-8.381903171539E-09 7.000000000000E+00
    -2.619344741106E-10 5.326000973582E-09-1.076841726899E-09-7.275957614183E-10
     4.009620000000E+05 2.414000000000E+03
> EPH G08 CNAV
G08 2026 04 16 15 30 00 4.604808927979E-04-6.721734280291E-12 0.000000000000E+00
     3.341674804688E-03 6.458984375000E+01 5.455941547579E-09 2.624962152279E+00
     3.222376108170E-06 1.158838055562E-02 1.601874828339E-06 5.153704328601E+03
     3.159000000000E+05-1.182779669762E-07 1.212520929038E+00-1.844018697739E-07
     9.428189092205E-01 3.410351562500E+02 5.379034697015E-01-8.662447203461E-09
     2.885834492304E-10-3.418111128048E-14-2.000000000000E+00 3.000000000000E+00
    -1.000000000000E+00 1.000000000000E+00 4.656612873077E-09 7.000000000000E+00
    -1.047737896442E-09-4.685716703534E-09 6.257323548198E-09 6.839400157332E-09
     4.009620000000E+05 2.414000000000E+03
> EPH G32 CNAV
G32 2026 04 16 15 30 00 5.448353476822E-06 1.955413608812E-11 0.000000000000E+00
     2.528667449951E-03 3.140234375000E+01 4.651800909037E-09-3.000451656604E+00
     1.578591763973E-06 9.391313767992E-03 4.324130713940E-06 5.153742023778E+03
     3.537000000000E+05 8.568167686462E-08-1.889462035518E+00-7.078051567078E-08
     9.679710236042E-01 3.001210937500E+02-1.981157460578E+00-8.126353444433E-09
     3.103700710164E-10-1.523762550068E-14-2.000000000000E+00 3.000000000000E+00
    -2.000000000000E+00 1.000000000000E+00 9.313225746155E-10 7.000000000000E+00
    -2.910383045673E-10-1.891748979688E-09 8.614733815193E-09 9.051291272044E-09
     4.009620000000E+05 2.414000000000E+03
> EPH G01 LNAV
G01 2026 04 16 16 00 00 2.963333390653E-04-8.299139153678E-12 0.000000000000E+00
     1.760000000000E+02-1.247812500000E+02 4.703410201628E-09 1.697592014196E+00
    -6.344169378281E-06 1.696671824902E-03 8.543953299522E-06 5.153619623184E+03
     4.032000000000E+05 7.636845111847E-08 2.383424455881E+00 1.266598701477E-07
     9.576361693446E-01 2.116875000000E+02 1.585781780805E-01-8.298559954046E-09
    -5.389510209019E-10 1.000000000000E+00 2.414000000000E+03 0.000000000000E+00
     2.000000000000E+00 0.000000000000E+00-9.313225746155E-09 4.320000000000E+02
     4.009680000000E+05 4.000000000000E+00
> EPH G03 LNAV
G03 2026 04 16 16 00 00 5.010850727558E-04-1.432454155292E-11 0.000000000000E+00
     7.600000000000E+01 1.912500000000E+01 3.540504619086E-09-3.682918457022E-01
     9.443610906601E-07 6.699912366457E-03 1.326017081738E-05 5.153608182907E+03
     4.032000000000E+05-5.587935447693E-08-2.911530932173E+00 1.396983861923E-07
     9.942121364004E-01 1.402812500000E+02 1.209210673118E+00-7.608531211579E-09
     3.582292073987E-10 1.000000000000E+00 2.414000000000E+03 0.000000000000E+00
     2.000000000000E+00 0.000000000000E+00 1.396983861923E-09 7.600000000000E+01
     4.009680000000E+05 4.000000000000E+00
> EPH G02 LNAV
G02 2026 04 16 16 00 00 8.001551032066E-05 7.730704965070E-12 0.000000000000E+00
     3.100000000000E+01-1.202812500000E+02 4.605548982459E-09-3.076580364950E+00
    -5.999580025673E-06 1.682202063967E-02 6.610527634621E-06 5.153767227173E+03
     4.032000000000E+05-1.061707735062E-07 2.221059789381E+00 3.371387720108E-07
     9.626898110719E-01 2.498437500000E+02-7.823462939205E-01-8.015691028563E-09
    -4.910918845196E-10 1.000000000000E+00 2.414000000000E+03 0.000000000000E+00
     2.000000000000E+00 0.000000000000E+00-1.769512891769E-08 3.100000000000E+01
     4.009680000000E+05 4.000000000000E+00
> EPH G14 LNAV
G14 2026 04 16 16 00 00 7.434682920575E-04 1.364242052659E-12 0.000000000000E+00
     1.900000000000E+02 1.047187500000E+02 4.731982820364E-09-7.545298063379E-01
     5.491077899933E-06 6.969522801228E-03 1.250021159649E-05 5.153665111542E+03
     4.032000000000E+05 1.601874828339E-07 2.290933106102E-01 5.774199962616E-08
     9.428454253422E-01 1.266562500000E+02-2.727591973463E+00-8.187483898711E-09
     3.075128091428E-10 1.000000000000E+00 2.414000000000E+03 0.000000000000E+00
     2.000000000000E+00 0.000000000000E+00-8.381903171539E-09 7.020000000000E+02
     4.009680000000E+05 4.000000000000E+00
> EPH G08 LNAV
G08 2026 04 16 16 00 00 4.604686982930E-04-6.707523425575E-12 0.000000000000E+00
     8.300000000000E+01 6.018750000000E+01 5.425225982439E-09 2.887402774132E+00
     3.021210432053E-06 1.158878975548E-02 1.531094312668E-06 5.153704710007E+03
     4.032000000000E+05-7.450580596924E-08 1.212505411866E+00-1.769512891769E-07
     9.428195741168E-01 3.429375000000E+02 5.380027835526E-01-8.628930858177E-09
     2.871548182937E-10 1.000000000000E+00 2.414000000000E+03 0.000000000000E+00
     2.800000000000E+00 0.000000000000E+00 4.656612873077E-09 8.300000000000E+01
     4.009680000000E+05 4.000000000000E+00
> EPH G17 LNAV
G17 2026 04 16 16 00 00-1.142397522926E-04-8.981260180008E-12 0.000000000000E+00
     7.500000000000E+01 4.740625000000E+01 5.224503335820E-09 2.852534995075E+00
     2.574175596237E-06 1.259386376478E-02 9.890645742416E-07 5.153614442825E+03
     4.032000000000E+05 2.086162567139E-07 1.317948622010E+00 1.266598701477E-07
     9.584028686178E-01 3.579375000000E+02-1.114976573901E+00-8.593572242492E-09
     1.575065607805E-10 1.000000000000E+00 2.414000000000E+03 0.000000000000E+00
     2.000000000000E+00 0.000000000000E+00-1.117587089539E-08 7.500000000000E+01
     4.009680000000E+05 4.000000000000E+00
> EPH G22 LNAV
G22 2026 04 16 15 59 44-1.764623448253E-05 6.025402399246E-12 0.000000000000E+00
     1.400000000000E+01 1.245000000000E+02 4.324108687912E-09-2.785378810231E+00
     6.429851055145E-06 1.200878876261E-02 1.225620508194E-05 5.153630519867E+03
     4.031840000000E+05 4.656612873077E-08 3.046639808091E-01 1.732259988785E-07
     9.580613343001E-01 1.355312500000E+02-9.933953394976E-01-7.776752504386E-09
     4.053740283126E-10 1.000000000000E+00 2.414000000000E+03 0.000000000000E+00
     2.000000000000E+00 0.000000000000E+00-1.117587089539E-08 1.400000000000E+01
     4.009680000000E+05 4.000000000000E+00
> EPH G32 LNAV
G32 2026 04 16 16 00 00 5.483627319336E-06 1.955413608812E-11 0.000000000000E+00
     6.600000000000E+01 3.493750000000E+01 4.665551481803E-09-2.738011216883E+00
     1.916661858559E-06 9.391019935720E-03 4.285946488380E-06 5.153742328644E+03
     4.032000000000E+05 1.024454832077E-07-1.889476743696E+00-5.215406417847E-08
     9.679715977995E-01 3.007187500000E+02-1.981064374369E+00-8.130695818974E-09
     3.253706958526E-10 1.000000000000E+00 2.414000000000E+03 0.000000000000E+00
     2.000000000000E+00 0.000000000000E+00 9.313225746155E-10 6.600000000000E+01
     4.009680000000E+05 4.000000000000E+00
> ION G01 LNAV
    2026 04 16 15 23 00 1.583248376846E-08 1.490116119385E-08-1.192092895508E-07
    -1.192092895508E-07 1.064960000000E+05 6.553600000000E+04-1.966080000000E+05
    -1.966080000000E+05 0.000000000000E+00
> EPH G17 CNAV
G17 2026 04 16 15 30 00-1.142234541476E-04-8.952838470577E-12 0.000000000000E+00
    -6.179809570312E-03 5.622656250000E+01 5.202538135167E-09 2.589811142772E+00
     2.826564013958E-06 1.259477820713E-02 1.004897058010E-06 5.153615004940E+03
     3.483000000000E+05 1.955777406693E-07 1.317964402508E+00 1.676380634308E-08
     9.584026126072E-01 3.571835937500E+02-1.114812720493E+00-8.590122762286E-09
     9.053948561871E-11 7.289645160838E-14-2.000000000000E+00 3.000000000000E+00
    -2.000000000000E+00 1.000000000000E+00-1.117587089539E-08 7.000000000000E+00
    -8.440110832453E-10 7.014023140073E-09 0.000000000000E+00 0.000000000000E+00
     4.009800000000E+05 2.414000000000E+03
> STO G01 LNAV
    2026 04 18 19 50 24 GPUT                                  UTC(USNO)         
     4.010340000000E+05-4.656612873077E-09-1.776356839400E-15 0.000000000000E+00
> EPH G04 CNAV
G04 2026 04 16 15 30 00 5.354650784284E-05 1.527666881884E-12 0.000000000000E+00
     1.001358032227E-04 2.436718750000E+01 4.771270171125E-09 2.317897890094E+00
     1.277774572372E-06 3.723331552465E-03 4.240311682224E-06 5.153702914456E+03
     3.879000000000E+05-4.842877388000E-08-1.842052487143E+00-1.117587089539E-08
     9.707145362825E-01 3.028164062500E+02-2.869373858767E+00-8.293324685169E-09
     1.860791795162E-10 3.662261922909E-15-2.000000000000E+00 3.000000000000E+00
    -4.000000000000E+00 1.000000000000E+00-4.656612873077E-09 7.000000000000E+00
    -2.037268131971E-10 3.317836672068E-09-1.426087692380E-09-1.396983861923E-09
     4.014300000000E+05 2.414000000000E+03
> EPH G04 LNAV
G04 2026 04 16 16 00 00 5.354918539524E-05 1.477928890381E-12 0.000000000000E+00
     2.090000000000E+02 2.418750000000E+01 4.769841540189E-09 2.580428835436E+00
     1.210719347000E-06 3.723342902958E-03 4.287809133530E-06 5.153702951431E+03
     4.032000000000E+05-4.656612873077E-08-1.842067441091E+00-3.166496753693E-08
     9.707149305389E-01 3.027812500000E+02-2.869363564944E+00-8.280344909602E-09
     1.917937032633E-10 1.000000000000E+00 2.414000000000E+03 0.000000000000E+00
     2.000000000000E+00 0.000000000000E+00-4.656612873077E-09 2.090000000000E+02
     4.018260000000E+05 4.000000000000E+00
> EPH R20 FDMA
R20 2026 04 16 15 15 00 2.310397103429E-04 9.094947017729E-13 4.009800000000E+05
     1.025649316406E+04 1.408055305481E+00 9.313225746155E-10 2.000000000000E+00
    -3.891989257812E+03 2.819017410278E+00-2.793967723846E-09 2.000000000000E+00
     2.304493017578E+04-1.468400955200E-01-1.862645149231E-09 0.000000000000E+00
     2.430000000000E+02 1.862645149231E-09 3.000000000000E+00 3.000000000000E+00
> EPH R04 FDMA
R04 2026 04 16 15 15 00 3.495104610920E-04 2.728484105319E-12 4.009800000000E+05
     1.208220996094E+04-2.766262054443E+00-9.313225746155E-10 0.000000000000E+00
     9.717558593750E+03-2.178421020508E-01-9.313225746155E-10 6.000000000000E+00
     2.029220947266E+04 1.753359794617E+00-2.793967723846E-09 0.000000000000E+00
     1.790000000000E+02-2.793967723846E-09 4.000000000000E+00 3.000000000000E+00
> EPH R19 FDMA
R19 2026 04 16 15 15 00 4.289019852877E-05 1.818989403546E-12 4.009800000000E+05
     1.513549462891E+04 1.041319847107E+00-1.862645149231E-09 0.000000000000E+00
     1.359828564453E+04 1.831192016602E+00-9.313225746155E-10 3.000000000000E+00
     1.534031640625E+04-2.653767585754E+00-1.862645149231E-09 0.000000000000E+00
     1.790000000000E+02 1.862645149231E-09 5.000000000000E+00 3.000000000000E+00
> EPH R11 FDMA
R11 2026 04 16 15 15 00 1.729000359774E-05-1.818989403546E-12 4.009800000000E+05
     1.127905273438E+02 1.232569694519E+00 3.725290298462E-09 0.000000000000E+00
    -1.738283203125E+04-2.239776611328E+00-3.725290298462E-09 0.000000000000E+00
     1.867027392578E+04-2.095959663391E+00-9.313225746155E-10 0.000000000000E+00
     2.430000000000E+02 2.793967723846E-09 7.000000000000E+00 3.000000000000E+00
> EPH R05 FDMA
R05 2026 04 16 15 15 00 1.665828749537E-04 9.094947017729E-13 4.010100000000E+05
     2.404581005859E+04-9.954538345337E-01-9.313225746155E-10 0.000000000000E+00
     4.361184082031E+03-2.549438476562E-01-3.725290298462E-09 1.000000000000E+00
     7.353330566406E+03 3.411935806274E+00-0.000000000000E+00 0.000000000000E+00
     2.430000000000E+02 2.793967723846E-09 3.000000000000E+00 3.000000000000E+00
> EPH R21 FDMA
R21 2026 04 16 15 15 00-2.991762012243E-04-3.637978807092E-12 4.010100000000E+05
     3.526093750000E+02 1.066236495972E+00 3.725290298462E-09 0.000000000000E+00
    -1.761187207031E+04 2.296868324280E+00-3.725290298462E-09 4.000000000000E+00
     1.845377294922E+04 2.168412208557E+00-1.862645149231E-09 0.000000000000E+00
     2.430000000000E+02 9.313225746155E-10 3.000000000000E+00 3.000000000000E+00
> EPH R06 FDMA
R06 2026 04 16 15 15 00 2.526585012674E-05 0.000000000000E+00 4.010100000000E+05
     2.329198828125E+04 1.325020790100E+00 0.000000000000E+00 0.000000000000E+00
    -3.940369140625E+03-1.444530487061E-01-3.725290298462E-09-4.000000000000E+00
    -9.636679199219E+03 3.256735801697E+00 1.862645149231E-09 0.000000000000E+00
     2.430000000000E+02 9.313225746155E-09 0.000000000000E+00 3.000000000000E+00
> EPH R03 FDMA
R03 2026 04 16 15 15 00 1.426469534636E-04 9.094947017729E-13 4.010400000000E+05
    -6.365979492188E+03-3.072841644287E+00-9.313225746155E-10 0.000000000000E+00
     1.024241503906E+04-2.746772766113E-02 1.862645149231E-09 5.000000000000E+00
     2.252189306641E+04-8.629627227783E-01-2.793967723846E-09 0.000000000000E+00
     1.790000000000E+02-2.793967723846E-09 3.000000000000E+00 3.000000000000E+00
> STO R20 LNAV
    2026 04 16 00 00 00 GLUT                                  UTC(SU)           
     4.010980000000E+05-0.000000000000E+00 0.000000000000E+00 0.000000000000E+00
> STO R20 LNAV
    2026 04 16 00 00 00 GLGP                                                    
     4.010980000000E+05 2.793967723846E-09 0.000000000000E+00 0.000000000000E+00
> EPH R12 FDMA
R12 2026 04 16 15 15 00 6.783101707697E-05 9.094947017729E-13 4.011300000000E+05
    -1.186618066406E+04 1.620604515076E+00 9.313225746155E-10 0.000000000000E+00
    -1.276291992188E+03-2.622527122498E+00 0.000000000000E+00-1.000000000000E+00
     2.256790478516E+04 7.051792144775E-01-2.793967723846E-09 0.000000000000E+00
     2.430000000000E+02 7.450580596924E-09 1.000000000000E+00 3.000000000000E+00
> EPH R10 FDMA
R10 2026 04 16 15 15 00-4.789475351572E-04-4.547473508865E-12 4.011600000000E+05
     1.121837646484E+04 1.339187622070E-01 3.725290298462E-09 0.000000000000E+00
    -2.263569726562E+04-5.285816192627E-01-5.587935447693E-09-7.000000000000E+00
     3.822617675781E+03-3.508144378662E+00 9.313225746155E-10 0.000000000000E+00
     2.430000000000E+02 1.024454832077E-08 5.000000000000E+00 3.000000000000E+00
> EPH R05 FDMA
R05 2026 04 16 15 45 00 1.665838062763E-04 9.094947017729E-13 4.014000000000E+05
     2.150242724609E+04-1.806085586548E+00-1.862645149231E-09 0.000000000000E+00
     4.076164062500E+03-2.455425262451E-02-2.793967723846E-09 1.000000000000E+00
     1.313171630859E+04 2.966891288757E+00-9.313225746155E-10 0.000000000000E+00
     1.830000000000E+02 2.793967723846E-09 3.000000000000E+00 3.000000000000E+00
> EPH R20 FDMA
R20 2026 04 16 15 45 00 2.310406416655E-04 9.094947017729E-13 4.014000000000E+05
     1.309609277344E+04 1.715143203735E+00-0.000000000000E+00 2.000000000000E+00
     8.894589843750E+02 2.453418731689E+00-2.793967723846E-09 2.000000000000E+00
     2.189504248047E+04-1.122436523438E+00-1.862645149231E-09 0.000000000000E+00
     1.830000000000E+02 1.862645149231E-09 3.000000000000E+00 3.000000000000E+00
> EPH R04 FDMA
R04 2026 04 16 15 45 00 3.495151177049E-04 2.728484105319E-12 4.014000000000E+05
     6.772950683594E+03-3.083396911621E+00-9.313225746155E-10 0.000000000000E+00
     9.718917968750E+03 2.332830429077E-01-0.000000000000E+00 6.000000000000E+00
     2.262607421875E+04 8.230915069580E-01-2.793967723846E-09 0.000000000000E+00
     2.470000000000E+02-2.793967723846E-09 4.000000000000E+00 3.000000000000E+00
> EPH R19 FDMA
R19 2026 04 16 15 45 00 4.289299249649E-05 1.818989403546E-12 4.014000000000E+05
     1.690422851562E+04 8.803081512451E-01-2.793967723846E-09 0.000000000000E+00
     1.621233837891E+04 1.065581321716E+00 0.000000000000E+00 3.000000000000E+00
     1.003049218750E+04-3.207633972168E+00-9.313225746155E-10 0.000000000000E+00
     2.470000000000E+02 1.862645149231E-09 5.000000000000E+00 3.000000000000E+00
> EPH R21 FDMA
R21 2026 04 16 15 45 00-2.991817891598E-04-3.637978807092E-12 4.014000000000E+05
     2.800537597656E+03 1.647101402283E+00 1.862645149231E-09 0.000000000000E+00
    -1.328556347656E+04 2.460383415222E+00-3.725290298462E-09 4.000000000000E+00
     2.159334912109E+04 1.297299385071E+00-1.862645149231E-09 0.000000000000E+00
     1.830000000000E+02 9.313225746155E-10 3.000000000000E+00 3.000000000000E+00
> EPH R11 FDMA
R11 2026 04 16 15 45 00 1.728814095259E-05-1.818989403546E-12 4.014000000000E+05
     1.805324218750E+03 6.561794281006E-01 3.725290298462E-09 0.000000000000E+00
    -2.109366894531E+04-1.837136268616E+00-4.656612873077E-09 0.000000000000E+00
     1.422458300781E+04-2.811696052551E+00-0.000000000000E+00 0.000000000000E+00
     1.830000000000E+02 2.793967723846E-09 7.000000000000E+00 3.000000000000E+00
> EPH R06 FDMA
R06 2026 04 16 15 45 00 2.526678144932E-05 9.094947017729E-13 4.014000000000E+05
     2.490531396484E+04 4.543046951294E-01-0.000000000000E+00 0.000000000000E+00
    -4.323862792969E+03-2.412881851196E-01-3.725290298462E-09-4.000000000000E+00
    -3.477903320312E+03 3.541924476624E+00 9.313225746155E-10 0.000000000000E+00
     1.830000000000E+02 9.313225746155E-09 0.000000000000E+00 3.000000000000E+00
> EPH R12 FDMA
R12 2026 04 16 15 45 00 6.783194839954E-05 9.094947017729E-13 4.014600000000E+05
    -9.263682128906E+03 1.245306015015E+00 1.862645149231E-09 0.000000000000E+00
    -6.265761230469E+03-2.876915931702E+00-9.313225746155E-10-1.000000000000E+00
     2.295082275391E+04-2.824401855469E-01-2.793967723846E-09 0.000000000000E+00
     1.790000000000E+02 7.450580596924E-09 1.000000000000E+00 3.000000000000E+00
> EPH R10 FDMA
R10 2026 04 16 15 45 00-4.789568483829E-04-4.547473508865E-12 4.016400000000E+05
     1.105639599609E+04-2.783498764038E-01 2.793967723846E-09 0.000000000000E+00
    -2.289476074219E+04 2.602319717407E-01-5.587935447693E-09-7.000000000000E+00
    -2.557914550781E+03-3.535528182983E+00 1.862645149231E-09 0.000000000000E+00
     1.790000000000E+02 1.024454832077E-08 5.000000000000E+00 3.000000000000E+00
> ION E13 IFNV
    2026 04 08 12 43 27 1.045000000000E+02 1.093750000000E-01 1.052856445312E-02
     0.000000000000E+00
> ION E15 IFNV
    2026 04 16 15 22 27 7.125000000000E+01 1.601562500000E-01 1.470947265625E-02
     0.000000000000E+00
> EPH E03 INAV
E03 2026 04 16 14 40 00-1.158897066489E-05-2.188471626141E-12 0.000000000000E+00
     2.900000000000E+01 1.043750000000E+01 3.564077029543E-09 1.047943459966E-01
     5.532056093216E-07 4.256602842361E-04 2.125278115273E-06 5.440599720001E+03
     3.984000000000E+05 1.490116119385E-08-1.699428214841E+00 2.421438694000E-08
     9.673217154608E-01 2.976562500000E+02 7.509933116001E-02-6.019536452141E-09
     8.571785620706E-11 5.170000000000E+02 2.414000000000E+03
     3.120000000000E+00 0.000000000000E+00 2.328306436539E-10 4.656612873077E-10
     4.009470000000E+05
> EPH E18 INAV
E18 2026 04 16 15 10 00 2.676036849152E-03 4.253308816260E-11 0.000000000000E+00
     3.200000000000E+01-8.437500000000E+00 7.526742090448E-09-7.552923406834E-01
    -4.041939973831E-07 1.661340678111E-01-2.203509211540E-06 5.289320442200E+03
     4.002000000000E+05 2.002343535423E-06 1.323051553836E+00-1.769512891769E-06
     8.539264117941E-01 3.298125000000E+02 3.086491921669E+00-1.065722963068E-08
     9.111093799342E-10 5.170000000000E+02 2.414000000000E+03
     3.120000000000E+00 1.300000000000E+02-3.958120942116E-09-4.656612873077E-09
     4.009530000000E+05
> EPH E15 INAV
E15 2026 04 16 14 40 00-2.510452177376E-04-2.941646926047E-12 0.000000000000E+00
     2.900000000000E+01-1.630625000000E+02 2.580821787301E-09 1.738304472822E+00
    -7.580965757370E-06 3.210096620023E-04 1.094676554203E-05 5.440607999802E+03
     3.984000000000E+05 5.587935447693E-09 2.501604464267E+00 1.173466444016E-07
     9.981280623488E-01 1.234062500000E+02-2.684827807341E-01-5.376652530588E-09
    -5.410939673071E-10 5.170000000000E+02 2.414000000000E+03
     3.120000000000E+00 0.000000000000E+00 3.026798367500E-09 3.026798367500E-09
     4.009530000000E+05
> EPH E13 INAV
E13 2026 04 16 15 10 00-5.264853825793E-05-8.952838470577E-13 0.000000000000E+00
     3.200000000000E+01-1.805000000000E+02 2.555820745907E-09 9.569658997795E-01
    -8.217990398407E-06 3.112776903436E-04 1.146271824837E-05 5.440614959717E+03
     4.002000000000E+05 1.341104507446E-07 2.501684654122E+00 3.352761268616E-08
     9.981716821771E-01 1.082187500000E+02-6.620851236458E-02-5.447012604224E-09
    -5.989535202468E-10 5.170000000000E+02 2.414000000000E+03
     3.600000000000E+00 0.000000000000E+00 3.026798367500E-09 2.793967723846E-09
     4.009530000000E+05
> EPH E05 INAV
E05 2026 04 16 14 40 00 2.761004725471E-05 2.799538378895E-12 0.000000000000E+00
     2.900000000000E+01 1.262500000000E+01 3.551933666580E-09 1.579654660031E+00
     7.003545761108E-07 3.484187182039E-04 2.326443791389E-06 5.440601572037E+03
     3.984000000000E+05-9.313225746155E-09-1.699417734496E+00-1.117587089539E-08
     9.673352123430E-01 2.950937500000E+02-6.170692662004E-01-6.019893609875E-09
     8.714648714384E-11 5.170000000000E+02 2.414000000000E+03
     3.600000000000E+00 0.000000000000E+00 1.164153218269E-09 1.164153218269E-09
     4.009530000000E+05
> EPH E21 INAV
E21 2026 04 16 13 50 00-7.356085116044E-04-2.742694960034E-12 0.000000000000E+00
     2.400000000000E+01 1.872812500000E+02 3.014411276615E-09-1.254963791536E-01
     8.698552846909E-06 9.190663695335E-05 1.251325011253E-05 5.440618572235E+03
     3.954000000000E+05 6.332993507385E-08 4.022459256260E-01 2.421438694000E-08
     9.620942512702E-01 6.784375000000E+01 1.750691576588E+00-5.617734001170E-09
     5.218074496605E-10 5.170000000000E+02 2.414000000000E+03
     3.600000000000E+00 0.000000000000E+00 2.328306436539E-10 0.000000000000E+00
     4.009550000000E+05
> EPH E27 INAV
E27 2026 04 16 15 10 00-9.628956904635E-04-1.051603248925E-11 0.000000000000E+00
     3.200000000000E+01 2.023125000000E+02 2.949051411257E-09 2.561076263746E+00
     9.380280971527E-06 1.498261699453E-04 1.150369644165E-05 5.440622560501E+03
     4.002000000000E+05 5.587935447693E-08 4.021805141699E-01 3.911554813385E-08
     9.620686970172E-01 9.753125000000E+01 4.584319876924E-01-5.590590013371E-09
     5.228789228631E-10 5.170000000000E+02 2.414000000000E+03
    -1.000000000000E+00 0.000000000000E+00 0.000000000000E+00-2.328306436539E-10
     4.009550000000E+05
> EPH E32 INAV
E32 2026 04 16 14 40 00-1.344643533230E-05-2.216893335572E-12 0.000000000000E+00
     2.900000000000E+01 2.281250000000E+00 3.953378959816E-09 6.565404417618E-01
     1.806765794754E-07 2.208120422438E-04 1.881271600723E-06 5.440594184875E+03
     3.984000000000E+05 2.793967723846E-08-1.680229763034E+00-1.117587089539E-08
     9.470676000241E-01 2.929375000000E+02-9.059891368498E-01-6.226687937975E-09
     5.285934466102E-11 5.170000000000E+02 2.414000000000E+03
     3.120000000000E+00 3.900000000000E+02-3.492459654808E-09-2.561137080193E-09
     4.009550000000E+05
> STO E15 IFNV
    2026 04 16 00 00 00 GAUT                                  UTCGAL            
     4.009570000000E+05 0.000000000000E+00 0.000000000000E+00 0.000000000000E+00
> STO E15 IFNV
    2026 04 17 00 00 00 GAGP                                                    
     4.009600000000E+05 2.735760062933E-09-1.554312234475E-14 0.000000000000E+00
> EPH E34 INAV
E34 2026 04 16 14 00 00-2.482903655618E-04-2.344791028008E-12 0.000000000000E+00
     2.500000000000E+01-1.596562500000E+02 2.498675508436E-09 4.982773659952E-01
    -7.612630724907E-06 1.202060375363E-04 1.114606857300E-05 5.440607709885E+03
     3.960000000000E+05-3.539025783539E-08 2.499782670439E+00 3.725290298462E-08
     9.979796668646E-01 1.200625000000E+02 1.456651548252E+00-5.309506876559E-09
    -5.643092200298E-10 5.170000000000E+02 2.414000000000E+03
     3.120000000000E+00 0.000000000000E+00 2.793967723846E-09 3.492459654808E-09
     4.009770000000E+05
> EPH E18 FNAV
E18 2026 04 16 15 10 00 2.676036965568E-03 4.253308816260E-11 0.000000000000E+00
     3.200000000000E+01-8.437500000000E+00 7.526742090448E-09-7.552923406834E-01
    -4.041939973831E-07 1.661340678111E-01-2.203509211540E-06 5.289320442200E+03
     4.002000000000E+05 2.002343535423E-06 1.323051553836E+00-1.769512891769E-06
     8.539264117941E-01 3.298125000000E+02 3.086491921669E+00-1.065722963068E-08
     9.111093799342E-10 2.580000000000E+02 2.414000000000E+03
     3.120000000000E+00 1.600000000000E+01-3.958120942116E-09 0.000000000000E+00
     4.009900000000E+05
> EPH E15 FNAV
E15 2026 04 16 14 40 00-2.510463236831E-04-2.941646926047E-12 0.000000000000E+00
     2.900000000000E+01-1.630625000000E+02 2.580821787301E-09 1.738304472822E+00
    -7.580965757370E-06 3.210096620023E-04 1.094676554203E-05 5.440607999802E+03
     3.984000000000E+05 5.587935447693E-09 2.501604464267E+00 1.173466444016E-07
     9.981280623488E-01 1.234062500000E+02-2.684827807341E-01-5.376652530588E-09
    -5.410939673071E-10 2.580000000000E+02 2.414000000000E+03
     3.120000000000E+00 0.000000000000E+00 3.026798367500E-09 0.000000000000E+00
     4.009900000000E+05
> EPH E13 FNAV
E13 2026 04 16 15 10 00-5.264929495752E-05-8.952838470577E-13 0.000000000000E+00
     3.200000000000E+01-1.805000000000E+02 2.555820745907E-09 9.569658997795E-01
    -8.217990398407E-06 3.112776903436E-04 1.146271824837E-05 5.440614959717E+03
     4.002000000000E+05 1.341104507446E-07 2.501684654122E+00 3.352761268616E-08
     9.981716821771E-01 1.082187500000E+02-6.620851236458E-02-5.447012604224E-09
    -5.989535202468E-10 2.580000000000E+02 2.414000000000E+03
     3.600000000000E+00 0.000000000000E+00 3.026798367500E-09 0.000000000000E+00
     4.009900000000E+05
> EPH E03 FNAV
E03 2026 04 16 14 40 00-1.159001840279E-05-2.188471626141E-12 0.000000000000E+00
     2.900000000000E+01 1.043750000000E+01 3.564077029543E-09 1.047943459966E-01
     5.532056093216E-07 4.256602842361E-04 2.125278115273E-06 5.440599720001E+03
     3.984000000000E+05 1.490116119385E-08-1.699428214841E+00 2.421438694000E-08
     9.673217154608E-01 2.976562500000E+02 7.509933116001E-02-6.019536452141E-09
     8.571785620706E-11 2.580000000000E+02 2.414000000000E+03
     3.120000000000E+00 0.000000000000E+00 2.328306436539E-10 0.000000000000E+00
     4.009900000000E+05
> EPH E27 FNAV
E27 2026 04 16 15 10 00-9.628964471631E-04-1.053024334396E-11 0.000000000000E+00
     3.200000000000E+01 2.023125000000E+02 2.949051411257E-09 2.561076263746E+00
     9.380280971527E-06 1.498261699453E-04 1.150369644165E-05 5.440622560501E+03
     4.002000000000E+05 5.587935447693E-08 4.021805141699E-01 3.911554813385E-08
     9.620686970172E-01 9.753125000000E+01 4.584319876924E-01-5.590590013371E-09
     5.228789228631E-10 2.580000000000E+02 2.414000000000E+03
    -1.000000000000E+00 0.000000000000E+00 0.000000000000E+00 0.000000000000E+00
     4.009900000000E+05
> EPH E32 FNAV
E32 2026 04 16 14 40 00-1.344789052382E-05-2.216893335572E-12 0.000000000000E+00
     2.900000000000E+01 2.281250000000E+00 3.953378959816E-09 6.565404417618E-01
     1.806765794754E-07 2.208120422438E-04 1.881271600723E-06 5.440594184875E+03
     3.984000000000E+05 2.793967723846E-08-1.680229763034E+00-1.117587089539E-08
     9.470676000241E-01 2.929375000000E+02-9.059891368498E-01-6.226687937975E-09
     5.285934466102E-11 2.580000000000E+02 2.414000000000E+03
     3.120000000000E+00 4.800000000000E+01-3.492459654808E-09 0.000000000000E+00
     4.009900000000E+05
> EPH E05 FNAV
E05 2026 04 16 14 40 00 2.760905772448E-05 2.799538378895E-12 0.000000000000E+00
     2.900000000000E+01 1.262500000000E+01 3.551933666580E-09 1.579654660031E+00
     7.003545761108E-07 3.484187182039E-04 2.326443791389E-06 5.440601572037E+03
     3.984000000000E+05-9.313225746155E-09-1.699417734496E+00-1.117587089539E-08
     9.673352123430E-01 2.950937500000E+02-6.170692662004E-01-6.019893609875E-09
     8.714648714384E-11 2.580000000000E+02 2.414000000000E+03
     3.600000000000E+00 0.000000000000E+00 1.164153218269E-09 0.000000000000E+00
     4.009900000000E+05
> EPH E34 FNAV
E34 2026 04 16 14 00 00-2.482919953763E-04-2.344791028008E-12 0.000000000000E+00
     2.500000000000E+01-1.596562500000E+02 2.498675508436E-09 4.982773659952E-01
    -7.612630724907E-06 1.202060375363E-04 1.114606857300E-05 5.440607709885E+03
     3.960000000000E+05-3.539025783539E-08 2.499782670439E+00 3.725290298462E-08
     9.979796668646E-01 1.200625000000E+02 1.456651548252E+00-5.309506876559E-09
    -5.643092200298E-10 2.580000000000E+02 2.414000000000E+03
     3.120000000000E+00 0.000000000000E+00 2.793967723846E-09 0.000000000000E+00
     4.009900000000E+05
> EPH E23 INAV
E23 2026 04 16 14 00 00-3.184785600752E-05-1.278976924368E-12 0.000000000000E+00
     2.500000000000E+01 1.729687500000E+02 2.904049536748E-09-1.387469047781E+00
     7.843598723412E-06 2.704834332690E-04 1.312606036663E-05 5.440626619339E+03
     3.960000000000E+05 7.450580596924E-08 3.989131158982E-01-2.421438694000E-08
     9.640208280684E-01 5.784375000000E+01 2.297283696390E+00-5.581303912282E-09
     5.046638784191E-10 5.170000000000E+02 2.414000000000E+03
     3.120000000000E+00 0.000000000000E+00-4.656612873077E-10 6.984919309616E-10
     4.010070000000E+05
> EPH E21 FNAV
E21 2026 04 16 13 50 00-7.356092100963E-04-2.742694960034E-12 0.000000000000E+00
     2.400000000000E+01 1.872812500000E+02 3.014411276615E-09-1.254963791536E-01
     8.698552846909E-06 9.190663695335E-05 1.251325011253E-05 5.440618572235E+03
     3.954000000000E+05 6.332993507385E-08 4.022459256260E-01 2.421438694000E-08
     9.620942512702E-01 6.784375000000E+01 1.750691576588E+00-5.617734001170E-09
     5.218074496605E-10 2.580000000000E+02 2.414000000000E+03
     3.600000000000E+00 0.000000000000E+00 2.328306436539E-10 0.000000000000E+00
     4.010200000000E+05
> EPH E08 INAV
E08 2026 04 16 15 10 00-1.285144244321E-04-7.048583938740E-12 0.000000000000E+00
     3.200000000000E+01 5.812500000000E+00 3.565862818214E-09-2.314436772210E-01
     3.054738044739E-07 4.275460960343E-04 2.305954694748E-06 5.440600746155E+03
     4.002000000000E+05 2.793967723846E-08-1.696598457290E+00-1.303851604462E-08
     9.730821133930E-01 2.957500000000E+02-1.530697341403E-01-6.004535827305E-09
     5.250218692682E-11 5.170000000000E+02 2.414000000000E+03
     3.120000000000E+00 0.000000000000E+00-6.519258022308E-09-7.217749953270E-09
     4.010370000000E+05
> EPH E23 FNAV
E23 2026 04 16 14 00 00-3.184971865267E-05-1.278976924368E-12 0.000000000000E+00
     2.500000000000E+01 1.729687500000E+02 2.904049536748E-09-1.387469047781E+00
     7.843598723412E-06 2.704834332690E-04 1.312606036663E-05 5.440626619339E+03
     3.960000000000E+05 7.450580596924E-08 3.989131158982E-01-2.421438694000E-08
     9.640208280684E-01 5.784375000000E+01 2.297283696390E+00-5.581303912282E-09
     5.046638784191E-10 2.580000000000E+02 2.414000000000E+03
     3.120000000000E+00 0.000000000000E+00-4.656612873077E-10 0.000000000000E+00
     4.010900000000E+05
> EPH E08 FNAV
E08 2026 04 16 15 10 00-1.285145408474E-04-7.048583938740E-12 0.000000000000E+00
     3.200000000000E+01 5.812500000000E+00 3.565862818214E-09-2.314436772210E-01
     3.054738044739E-07 4.275460960343E-04 2.305954694748E-06 5.440600746155E+03
     4.002000000000E+05 2.793967723846E-08-1.696598457290E+00-1.303851604462E-08
     9.730821133930E-01 2.957500000000E+02-1.530697341403E-01-6.004535827305E-09
     5.250218692682E-11 2.580000000000E+02 2.414000000000E+03
     3.120000000000E+00 0.000000000000E+00-6.519258022308E-09 0.000000000000E+00
     4.011200000000E+05
> EPH E26 INAV
E26 2026 04 16 15 10 00 2.777869231068E-04 1.080024958355E-11 0.000000000000E+00
     3.200000000000E+01-1.986562500000E+02 2.668682589913E-09 5.138020779418E-01
    -9.175390005112E-06 1.991798635572E-04 1.090951263905E-05 5.440607976913E+03
     4.002000000000E+05 2.793967723846E-08 2.498643879415E+00-4.470348358154E-08
     9.914561289388E-01 1.144375000000E+02-4.056439244462E-01-5.480228273505E-09
    -6.593131773260E-10 5.170000000000E+02 2.414000000000E+03
     3.120000000000E+00 0.000000000000E+00-6.519258022308E-09-7.217749953270E-09
     4.013640000000E+05
> EPH E05 INAV
E05 2026 04 16 15 10 00 2.761516952887E-05 2.799538378895E-12 0.000000000000E+00
     3.200000000000E+01 1.300000000000E+01 3.569077237821E-09 1.803093504070E+00
     6.947666406631E-07 3.485155757517E-04 2.335757017136E-06 5.440601306915E+03
     4.002000000000E+05-5.587935447693E-09-1.699428532294E+00-2.048909664154E-08
     9.673353893560E-01 2.962187500000E+02-6.173499738473E-01-6.020965083078E-09
     8.178912113090E-11 5.170000000000E+02 2.414000000000E+03
     3.600000000000E+00 0.000000000000E+00 1.164153218269E-09 1.164153218269E-09
     4.014350000000E+05
> EPH E26 FNAV
E26 2026 04 16 15 10 00 2.777868066914E-04 1.080024958355E-11 0.000000000000E+00
     3.200000000000E+01-1.986562500000E+02 2.668682589913E-09 5.138020779418E-01
    -9.175390005112E-06 1.991798635572E-04 1.090951263905E-05 5.440607976913E+03
     4.002000000000E+05 2.793967723846E-08 2.498643879415E+00-4.470348358154E-08
     9.914561289388E-01 1.144375000000E+02-4.056439244462E-01-5.480228273505E-09
    -6.593131773260E-10 2.580000000000E+02 2.414000000000E+03
     3.120000000000E+00 0.000000000000E+00-6.519258022308E-09 0.000000000000E+00
     4.014600000000E+05
> EPH E18 INAV
E18 2026 04 16 15 20 00 2.676061820239E-03 4.250466645317E-11 0.000000000000E+00
     3.300000000000E+01 2.562500000000E+00 7.971760627257E-09-6.743471215844E-01
     1.601874828339E-07 1.661313109798E-01-2.020969986916E-06 5.289312328339E+03
     4.008000000000E+05 2.192333340645E-06 1.323048709924E+00-1.225620508194E-06
     8.539257169080E-01 3.253750000000E+02 3.086497868431E+00-1.132832901323E-08
     5.907388923603E-10 5.170000000000E+02 2.414000000000E+03
     3.120000000000E+00 1.300000000000E+02-3.958120942116E-09-4.656612873077E-09
     4.014650000000E+05
> EPH E27 INAV
E27 2026 04 16 15 20 00-9.629019186832E-04-1.051603248925E-11 0.000000000000E+00
     3.300000000000E+01 2.023437500000E+02 2.941908256573E-09 2.635492865668E+00
     9.363517165184E-06 1.498336205259E-04 1.151673495770E-05 5.440622545242E+03
     4.008000000000E+05 5.401670932770E-08 4.021771553100E-01 4.842877388000E-08
     9.620690539692E-01 9.740625000000E+01 4.584002921093E-01-5.584518331890E-09
     5.196645032553E-10 5.170000000000E+02 2.414000000000E+03
    -1.000000000000E+00 0.000000000000E+00 0.000000000000E+00-2.328306436539E-10
     4.014650000000E+05
> EPH E05 INAV
E05 2026 04 16 15 20 00 2.761685755104E-05 2.799538378895E-12 0.000000000000E+00
     3.300000000000E+01 1.340625000000E+01 3.576220392505E-09 1.877624219454E+00
     7.003545761108E-07 3.485829802230E-04 2.328306436539E-06 5.440601142883E+03
     4.008000000000E+05-1.862645149231E-09-1.699432128147E+00-2.235174179077E-08
     9.673354478728E-01 2.967812500000E+02-6.174946666857E-01-6.021679398546E-09
     7.964617472573E-11 5.170000000000E+02 2.414000000000E+03
     3.600000000000E+00 0.000000000000E+00 1.164153218269E-09 1.164153218269E-09
     4.014650000000E+05
> EPH E13 INAV
E13 2026 04 16 15 20 00-5.264888750389E-05-8.810729923425E-13 0.000000000000E+00
     3.300000000000E+01-1.804375000000E+02 2.569392739807E-09 1.032381927834E+00
    -8.216127753258E-06 3.113036509603E-04 1.137144863605E-05 5.440614328384E+03
     4.008000000000E+05 1.322478055954E-07 2.501681318668E+00 5.401670932770E-08
     9.981712652455E-01 1.108750000000E+02-6.723983742627E-02-5.446655446490E-09
    -5.871673150184E-10 5.170000000000E+02 2.414000000000E+03
     3.600000000000E+00 0.000000000000E+00 3.026798367500E-09 2.793967723846E-09
     4.014650000000E+05
> EPH E05 FNAV
E05 2026 04 16 15 10 00 2.761423820630E-05 2.799538378895E-12 0.000000000000E+00
     3.200000000000E+01 1.300000000000E+01 3.569077237821E-09 1.803093504070E+00
     6.947666406631E-07 3.485155757517E-04 2.335757017136E-06 5.440601306915E+03
     4.002000000000E+05-5.587935447693E-09-1.699428532294E+00-2.048909664154E-08
     9.673353893560E-01 2.962187500000E+02-6.173499738473E-01-6.020965083078E-09
     8.178912113090E-11 2.580000000000E+02 2.414000000000E+03
     3.600000000000E+00 0.000000000000E+00 1.164153218269E-09 0.000000000000E+00
     4.014900000000E+05
> EPH E08 INAV
E08 2026 04 16 15 20 00-1.285185571760E-04-7.048583938740E-12 0.000000000000E+00
     3.300000000000E+01 6.218750000000E+00 3.560862609935E-09-1.571499618810E-01
     3.203749656677E-07 4.276219988242E-04 2.283602952957E-06 5.440600914001E+03
     4.008000000000E+05 2.980232238770E-08-1.696602067772E+00-9.313225746155E-09
     9.730821689839E-01 2.963125000000E+02-1.529772279784E-01-6.001321407697E-09
     5.143071372424E-11 5.170000000000E+02 2.414000000000E+03
     3.120000000000E+00 0.000000000000E+00-6.519258022308E-09-7.217749953270E-09
     4.014930000000E+05
> EPH E18 FNAV
E18 2026 04 16 15 20 00 2.676061936654E-03 4.250466645317E-11 0.000000000000E+00
     3.300000000000E+01 2.562500000000E+00 7.971760627257E-09-6.743471215844E-01
     1.601874828339E-07 1.661313109798E-01-2.020969986916E-06 5.289312328339E+03
     4.008000000000E+05 2.192333340645E-06 1.323048709924E+00-1.225620508194E-06
     8.539257169080E-01 3.253750000000E+02 3.086497868431E+00-1.132832901323E-08
     5.907388923603E-10 2.580000000000E+02 2.414000000000E+03
     3.120000000000E+00 1.600000000000E+01-3.958120942116E-09 0.000000000000E+00
     4.015400000000E+05
> EPH E13 FNAV
E13 2026 04 16 15 20 00-5.264964420348E-05-8.810729923425E-13 0.000000000000E+00
     3.300000000000E+01-1.804375000000E+02 2.569392739807E-09 1.032381927834E+00
    -8.216127753258E-06 3.113036509603E-04 1.137144863605E-05 5.440614328384E+03
     4.008000000000E+05 1.322478055954E-07 2.501681318668E+00 5.401670932770E-08
     9.981712652455E-01 1.108750000000E+02-6.723983742627E-02-5.446655446490E-09
    -5.871673150184E-10 2.580000000000E+02 2.414000000000E+03
     3.600000000000E+00 0.000000000000E+00 3.026798367500E-09 0.000000000000E+00
     4.015400000000E+05
> EPH E27 FNAV
E27 2026 04 16 15 20 00-9.629026753828E-04-1.051603248925E-11 0.000000000000E+00
     3.300000000000E+01 2.023437500000E+02 2.941908256573E-09 2.635492865668E+00
     9.363517165184E-06 1.498336205259E-04 1.151673495770E-05 5.440622545242E+03
     4.008000000000E+05 5.401670932770E-08 4.021771553100E-01 4.842877388000E-08
     9.620690539692E-01 9.740625000000E+01 4.584002921093E-01-5.584518331890E-09
     5.196645032553E-10 2.580000000000E+02 2.414000000000E+03
    -1.000000000000E+00 0.000000000000E+00 0.000000000000E+00 0.000000000000E+00
     4.015400000000E+05
> EPH E08 FNAV
E08 2026 04 16 15 20 00-1.285186153837E-04-7.048583938740E-12 0.000000000000E+00
     3.300000000000E+01 6.218750000000E+00 3.560862609935E-09-1.571499618810E-01
     3.203749656677E-07 4.276219988242E-04 2.283602952957E-06 5.440600914001E+03
     4.008000000000E+05 2.980232238770E-08-1.696602067772E+00-9.313225746155E-09
     9.730821689839E-01 2.963125000000E+02-1.529772279784E-01-6.001321407697E-09
     5.143071372424E-11 2.580000000000E+02 2.414000000000E+03
     3.120000000000E+00 0.000000000000E+00-6.519258022308E-09 0.000000000000E+00
     4.015400000000E+05
> EPH E26 INAV
E26 2026 04 16 15 20 00 2.777935587801E-04 1.080024958355E-11 0.000000000000E+00
     3.300000000000E+01-1.958750000000E+02 2.665825328040E-09 5.865607738221E-01
    -9.028241038322E-06 1.993009354919E-04 1.091696321964E-05 5.440608667374E+03
     4.008000000000E+05 3.352761268616E-08 2.498640586387E+00-5.215406417847E-08
     9.914557003038E-01 1.143125000000E+02-4.040170483603E-01-5.484157008581E-09
    -6.560987577182E-10 5.170000000000E+02 2.414000000000E+03
     3.120000000000E+00 0.000000000000E+00-6.519258022308E-09-7.217749953270E-09
     4.015440000000E+05
> EPH E26 FNAV
E26 2026 04 16 15 20 00 2.777934423648E-04 1.080024958355E-11 0.000000000000E+00
     3.300000000000E+01-1.958750000000E+02 2.665825328040E-09 5.865607738221E-01
    -9.028241038322E-06 1.993009354919E-04 1.091696321964E-05 5.440608667374E+03
     4.008000000000E+05 3.352761268616E-08 2.498640586387E+00-5.215406417847E-08
     9.914557003038E-01 1.143125000000E+02-4.040170483603E-01-5.484157008581E-09
    -6.560987577182E-10 2.580000000000E+02 2.414000000000E+03
     3.120000000000E+00 0.000000000000E+00-6.519258022308E-09 0.000000000000E+00
     4.015800000000E+05
> EPH E05 FNAV
E05 2026 04 16 15 20 00 2.761592622846E-05 2.799538378895E-12 0.000000000000E+00
     3.300000000000E+01 1.340625000000E+01 3.576220392505E-09 1.877624219454E+00
     7.003545761108E-07 3.485829802230E-04 2.328306436539E-06 5.440601142883E+03
     4.008000000000E+05-1.862645149231E-09-1.699432128147E+00-2.235174179077E-08
     9.673354478728E-01 2.967812500000E+02-6.174946666857E-01-6.021679398546E-09
     7.964617472573E-11 2.580000000000E+02 2.414000000000E+03
     3.600000000000E+00 0.000000000000E+00 1.164153218269E-09 0.000000000000E+00
     4.015900000000E+05
> EPH S36 SBAS
S36 2026 04 16 15 21 20 0.000000000000E+00 0.000000000000E+00 4.009610000000E+05
     4.200368800000E+04 0.000000000000E+00 0.000000000000E+00 6.300000000000E+01
     3.674846960000E+03 0.000000000000E+00 0.000000000000E+00 3.276700000000E+04
     0.000000000000E+00 0.000000000000E+00 0.000000000000E+00 2.400000000000E+02
> EPH S21 SBAS
S21 2026 04 16 15 21 20 0.000000000000E+00 0.000000000000E+00 4.009610000000E+05
     4.200468400000E+04 0.000000000000E+00 0.000000000000E+00 6.300000000000E+01
    -3.674932960000E+03 0.000000000000E+00 0.000000000000E+00 3.276700000000E+04
     0.000000000000E+00 0.000000000000E+00 0.000000000000E+00 2.230000000000E+02
> EPH S23 SBAS
S23 2026 04 16 15 22 40 0.000000000000E+00 0.000000000000E+00 4.010330000000E+05
     3.866796400000E+04 0.000000000000E+00 0.000000000000E+00 6.300000000000E+01
     1.681330800000E+04 0.000000000000E+00 0.000000000000E+00 3.276700000000E+04
     0.000000000000E+00 0.000000000000E+00 0.000000000000E+00 4.600000000000E+01
> EPH S36 SBAS
S36 2026 04 16 15 23 44 0.000000000000E+00 0.000000000000E+00 4.010370000000E+05
     4.200368800000E+04 0.000000000000E+00 0.000000000000E+00 6.300000000000E+01
     3.674846960000E+03 0.000000000000E+00 0.000000000000E+00 3.276700000000E+04
     0.000000000000E+00 0.000000000000E+00 0.000000000000E+00 2.410000000000E+02
> EPH S21 SBAS
S21 2026 04 16 15 23 44 0.000000000000E+00 0.000000000000E+00 4.010370000000E+05
     4.200468400000E+04 0.000000000000E+00 0.000000000000E+00 6.300000000000E+01
    -3.674932960000E+03 0.000000000000E+00 0.000000000000E+00 3.276700000000E+04
     0.000000000000E+00 0.000000000000E+00 0.000000000000E+00 2.240000000000E+02
> EPH S23 SBAS
S23 2026 04 16 15 24 48 0.000000000000E+00 0.000000000000E+00 4.010940000000E+05
     3.866796400000E+04 0.000000000000E+00 0.000000000000E+00 6.300000000000E+01
     1.681330800000E+04 0.000000000000E+00 0.000000000000E+00 3.276700000000E+04
     0.000000000000E+00 0.000000000000E+00 0.000000000000E+00 4.700000000000E+01
> EPH S21 SBAS
S21 2026 04 16 15 26 24 0.000000000000E+00 0.000000000000E+00 4.011890000000E+05
     4.200468400000E+04 0.000000000000E+00 0.000000000000E+00 6.300000000000E+01
    -3.674932960000E+03 0.000000000000E+00 0.000000000000E+00 3.276700000000E+04
     0.000000000000E+00 0.000000000000E+00 0.000000000000E+00 2.250000000000E+02
> EPH S36 SBAS
S36 2026 04 16 15 26 24 0.000000000000E+00 0.000000000000E+00 4.011890000000E+05
     4.200368800000E+04 0.000000000000E+00 0.000000000000E+00 6.300000000000E+01
     3.674846960000E+03 0.000000000000E+00 0.000000000000E+00 3.276700000000E+04
     0.000000000000E+00 0.000000000000E+00 0.000000000000E+00 2.420000000000E+02
> EPH S23 SBAS
S23 2026 04 16 15 26 56 0.000000000000E+00 0.000000000000E+00 4.012200000000E+05
     3.866796400000E+04 0.000000000000E+00 0.000000000000E+00 6.300000000000E+01
     1.681330800000E+04 0.000000000000E+00 0.000000000000E+00 3.276700000000E+04
     0.000000000000E+00 0.000000000000E+00 0.000000000000E+00 4.800000000000E+01
> EPH S23 SBAS
S23 2026 04 16 15 28 48 0.000000000000E+00 0.000000000000E+00 4.013430000000E+05
     3.866796400000E+04 0.000000000000E+00 0.000000000000E+00 6.300000000000E+01
     1.681330800000E+04 0.000000000000E+00 0.000000000000E+00 3.276700000000E+04
     0.000000000000E+00 0.000000000000E+00 0.000000000000E+00 4.900000000000E+01
> EPH S36 SBAS
S36 2026 04 16 15 29 04 0.000000000000E+00 0.000000000000E+00 4.013450000000E+05
     4.200368800000E+04 0.000000000000E+00 0.000000000000E+00 6.300000000000E+01
     3.674846960000E+03 0.000000000000E+00 0.000000000000E+00 3.276700000000E+04
     0.000000000000E+00 0.000000000000E+00 0.000000000000E+00 2.430000000000E+02
> EPH S21 SBAS
S21 2026 04 16 15 29 04 0.000000000000E+00 0.000000000000E+00 4.013450000000E+05
     4.200468400000E+04 0.000000000000E+00 0.000000000000E+00 6.300000000000E+01
    -3.674932960000E+03 0.000000000000E+00 0.000000000000E+00 3.276700000000E+04
     0.000000000000E+00 0.000000000000E+00 0.000000000000E+00 2.260000000000E+02
> EPH S36 SBAS
S36 2026 04 16 15 31 28 0.000000000000E+00 0.000000000000E+00 4.014970000000E+05
     4.200368800000E+04 0.000000000000E+00 0.000000000000E+00 6.300000000000E+01
     3.674846960000E+03 0.000000000000E+00 0.000000000000E+00 3.276700000000E+04
     0.000000000000E+00 0.000000000000E+00 0.000000000000E+00 2.440000000000E+02
> EPH S21 SBAS
S21 2026 04 16 15 31 28 0.000000000000E+00 0.000000000000E+00 4.014970000000E+05
     4.200468400000E+04 0.000000000000E+00 0.000000000000E+00 6.300000000000E+01
    -3.674932960000E+03 0.000000000000E+00 0.000000000000E+00 3.276700000000E+04
     0.000000000000E+00 0.000000000000E+00 0.000000000000E+00 2.270000000000E+02
> EPH S23 SBAS
S23 2026 04 16 15 30 56 0.000000000000E+00 0.000000000000E+00 4.015310000000E+05
     3.866796400000E+04 0.000000000000E+00 0.000000000000E+00 6.300000000000E+01
     1.681330800000E+04 0.000000000000E+00 0.000000000000E+00 3.276700000000E+04
     0.000000000000E+00 0.000000000000E+00 0.000000000000E+00 5.000000000000E+01
> EPH S23 SBAS
S23 2026 04 16 15 33 04 0.000000000000E+00 0.000000000000E+00 4.015950000000E+05
     3.866796400000E+04 0.000000000000E+00 0.000000000000E+00 6.300000000000E+01
     1.681330800000E+04 0.000000000000E+00 0.000000000000E+00 3.276700000000E+04
     0.000000000000E+00 0.000000000000E+00 0.000000000000E+00 5.100000000000E+01
> EPH S21 SBAS
S21 2026 04 16 15 34 08 0.000000000000E+00 0.000000000000E+00 4.016510000000E+05
     4.200468400000E+04 0.000000000000E+00 0.000000000000E+00 6.300000000000E+01
    -3.674932960000E+03 0.000000000000E+00 0.000000000000E+00 3.276700000000E+04
     0.000000000000E+00 0.000000000000E+00 0.000000000000E+00 2.280000000000E+02
> EPH S36 SBAS
S36 2026 04 16 15 34 08 0.000000000000E+00 0.000000000000E+00 4.016510000000E+05
     4.200368800000E+04 0.000000000000E+00 0.000000000000E+00 6.300000000000E+01
     3.674846960000E+03 0.000000000000E+00 0.000000000000E+00 3.276700000000E+04
     0.000000000000E+00 0.000000000000E+00 0.000000000000E+00 2.450000000000E+02
> EPH S23 SBAS
S23 2026 04 16 15 35 12 0.000000000000E+00 0.000000000000E+00 4.017220000000E+05
     3.866796400000E+04 0.000000000000E+00 0.000000000000E+00 6.300000000000E+01
     1.681330800000E+04 0.000000000000E+00 0.000000000000E+00 3.276700000000E+04
     0.000000000000E+00 0.000000000000E+00 0.000000000000E+00 5.200000000000E+01
> EPH S21 SBAS
S21 2026 04 16 15 36 32 0.000000000000E+00 0.000000000000E+00 4.018070000000E+05
     4.200468400000E+04 0.000000000000E+00 0.000000000000E+00 6.300000000000E+01
    -3.674932960000E+03 0.000000000000E+00 0.000000000000E+00 3.276700000000E+04
     0.000000000000E+00 0.000000000000E+00 0.000000000000E+00 2.290000000000E+02
> EPH S36 SBAS
S36 2026 04 16 15 36 32 0.000000000000E+00 0.000000000000E+00 4.018070000000E+05
     4.200368800000E+04 0.000000000000E+00 0.000000000000E+00 6.300000000000E+01
     3.674846960000E+03 0.000000000000E+00 0.000000000000E+00 3.276700000000E+04
     0.000000000000E+00 0.000000000000E+00 0.000000000000E+00 2.460000000000E+02
> ION C08 D1D2
    2026 04 08 12 55 20 2.607703208923E-08 3.203749656677E-07-2.264976501465E-06
     3.337860107422E-06 1.105920000000E+05-2.785280000000E+05 2.359296000000E+06
    -1.638400000000E+06 0.000000000000E+00
> ION C43 D1D2
    2026 04 16 15 22 20 2.514570951462E-08 1.341104507446E-07-1.192092895508E-06
     1.847743988037E-06 1.454080000000E+05-5.406720000000E+05 3.211264000000E+06
    -2.490368000000E+06 0.000000000000E+00
> EPH C43 CNV2
C43 2026 04 16 15 00 00 1.363237388432E-04 7.380762667708E-13 0.000000000000E+00
    -2.530097961426E-03-8.086328125000E+01 4.849130557180E-09 8.195771194310E-01
    -3.898516297340E-06 6.896400591359E-04 1.010484993458E-06 5.282656277637E+03
     3.996000000000E+05-7.078051567078E-08 1.776195433532E+00 1.108273863792E-07
     9.414400306647E-01 3.293593750000E+02 9.739981751392E-01-7.709606850357E-09
    -2.853690296227E-10 2.720537428447E-14 3.000000000000E+00 4.008000000000E+05
     0.000000000000E+00-2.000000000000E+00 3.000000000000E+00 3.000000000000E+00
                       -2.619344741106E-09-9.313225746155E-10-4.714820533991E-09
     1.500000000000E+01 0.000000000000E+00 0.000000000000E+00 2.700000000000E+01
     4.009290000000E+05                                       2.700000000000E+01
> EPH C42 CNV2
C42 2026 04 16 15 00 00-8.952937787399E-04 1.406874616805E-12 0.000000000000E+00
     9.474754333496E-04 7.796484375000E+01 3.477466279000E-09 1.340173586535E+00
     3.838911652565E-06 1.587468257640E-03 8.151866495609E-06 5.282623302032E+03
     3.996000000000E+05 3.445893526077E-08-2.362479943321E+00 1.294538378716E-07
     9.861744021908E-01 2.090742187500E+02-8.298108743480E-01-6.652777114870E-09
     6.337763993310E-10-6.125569049628E-15 3.000000000000E+00 4.008000000000E+05
     0.000000000000E+00-2.000000000000E+00 3.000000000000E+00 3.000000000000E+00
                       -2.735760062933E-09-2.718297764659E-08-1.222360879183E-09
     1.500000000000E+01 0.000000000000E+00 0.000000000000E+00 2.700000000000E+01
     4.009290000000E+05                                       2.700000000000E+01
> EPH C50 CNV2
C50 2026 04 16 15 00 00-3.714038175531E-04 8.157918784946E-12 0.000000000000E+00
     3.624916076660E-03 7.771484375000E+01 3.701225599474E-09 1.127596645909E+00
     3.819353878498E-06 3.750771866180E-04 8.210539817810E-06 5.282637155845E+03
     3.996000000000E+05-8.288770914078E-08-2.370862281050E+00 9.592622518539E-08
     9.720711536139E-01 2.022656250000E+02-2.391839475200E-01-6.765817537744E-09
     6.073467270004E-10-2.700918168145E-14 3.000000000000E+00 4.008000000000E+05
     0.000000000000E+00-2.000000000000E+00 3.000000000000E+00 3.000000000000E+00
                       -2.386514097452E-09 3.539025783539E-08 8.550705388188E-08
     2.000000000000E+00 0.000000000000E+00 0.000000000000E+00 2.700000000000E+01
     4.009290000000E+05                                       2.700000000000E+01
> EPH C34 CNV2
C34 2026 04 16 15 00 00 9.265137487091E-04 7.915446076368E-12 0.000000000000E+00
     3.443241119385E-03-7.348437500000E+01 4.741447500320E-09 1.577420751940E+00
    -3.669410943985E-06 7.031726418063E-04 1.129694283009E-06 5.282610656636E+03
     3.996000000000E+05-7.078051567078E-08 1.779487883544E+00-3.352761268616E-08
     9.445193883723E-01 3.292382812500E+02 1.056071653715E+00-7.539599768879E-09
    -2.910835533698E-10-3.075864031681E-14 3.000000000000E+00 4.008000000000E+05
     0.000000000000E+00-2.000000000000E+00 3.000000000000E+00 3.000000000000E+00
                       -2.793967723846E-09-2.619344741106E-09-9.371433407068E-09
     2.000000000000E+00 0.000000000000E+00 0.000000000000E+00 2.700000000000E+01
     4.009290000000E+05                                       2.700000000000E+01
> EPH C49 CNV2
C49 2026 04 16 15 00 00-9.296228527091E-04 4.765077221691E-12 0.000000000000E+00
     1.806259155273E-03-9.305078125000E+01 4.661979904461E-09 3.276241435921E-01
    -4.494562745094E-06 4.334421246313E-04 1.220963895321E-06 5.282633206437E+03
     3.996000000000E+05 4.656612873077E-08 1.818267539924E+00 9.872019290924E-08
     9.511895984648E-01 3.299921875000E+02 1.047132621528E+00-7.628532044694E-09
    -3.621579424748E-10-9.395445766511E-15 3.000000000000E+00 4.008000000000E+05
     0.000000000000E+00-2.000000000000E+00 3.000000000000E+00 3.000000000000E+00
                       -2.619344741106E-09 1.164153218269E-09-1.327134668827E-08
     0.000000000000E+00 0.000000000000E+00 0.000000000000E+00 2.700000000000E+01
     4.009380000000E+05                                       2.700000000000E+01
> EPH C43 D1
C43 2026 04 16 15 00 00 1.363237388432E-04 7.380762667708E-13 0.000000000000E+00
     1.000000000000E+00-8.287500000000E+01 4.879131806853E-09 8.189514783763E-01
    -3.943219780922E-06 6.888231728226E-04 9.345822036266E-07 5.282655809402E+03
     3.996000000000E+05-3.725290298462E-09 1.776195707098E+00 1.052394509315E-07
     9.414400379793E-01 3.323281250000E+02 9.746253661557E-01-7.733893576282E-09
    -3.221562762449E-10                    1.058000000000E+03
     2.000000000000E+00 0.000000000000E+00-3.300000000000E-09-3.300000000000E-09
     4.009380000000E+05 1.000000000000E+00
> EPH C42 D1
C42 2026 04 16 15 00 00-8.952937787399E-04 1.406874616805E-12 0.000000000000E+00
     1.000000000000E+00 7.806250000000E+01 3.496574217780E-09 1.340155143527E+00
     3.841239959002E-06 1.587809645571E-03 8.056405931711E-06 5.282623510361E+03
     3.996000000000E+05 8.055940270424E-08-2.362480072789E+00 8.428469300270E-08
     9.861742266407E-01 2.103593750000E+02-8.297929316577E-01-6.686349941885E-09
     6.618132814653E-10                    1.058000000000E+03
     2.000000000000E+00 0.000000000000E+00-3.270000000000E-08-3.270000000000E-08
     4.009380000000E+05 1.000000000000E+00
> EPH C50 D1
C50 2026 04 16 15 00 00-3.714038757607E-04 8.157918784946E-12 0.000000000000E+00
     1.000000000000E+00 8.114062500000E+01 3.709083069626E-09 1.128166843100E+00
     4.026107490063E-06 3.763720160350E-04 7.980968803167E-06 5.282637861252E+03
     3.996000000000E+05-2.002343535423E-08-2.370862458795E+00 1.182779669762E-07
     9.720710263400E-01 2.058437500000E+02-2.397563025152E-01-6.785639791991E-09
     6.450268679581E-10                    1.058000000000E+03
     2.000000000000E+00 0.000000000000E+00 3.160000000000E-08 3.160000000000E-08
     4.009380000000E+05 1.000000000000E+00
> EPH C34 D1
C34 2026 04 16 15 00 00 9.265136905015E-04 7.915446076368E-12 0.000000000000E+00
     1.000000000000E+00-7.782812500000E+01 4.740197448250E-09 1.576909941909E+00
    -3.862194716930E-06 7.043714867905E-04 1.225154846907E-06 5.282611333847E+03
     3.996000000000E+05-8.987262845039E-08 1.779487957422E+00-1.536682248116E-08
     9.445193035231E-01 3.272031250000E+02 1.056580200612E+00-7.559243444260E-09
    -2.953694461802E-10                    1.058000000000E+03
     2.000000000000E+00 0.000000000000E+00-6.200000000000E-09-6.200000000000E-09
     4.009380000000E+05 1.000000000000E+00
> ION C14 D1D2
    2026 04 16 15 22 50 2.328306436539E-08 1.788139343262E-07-1.430511474609E-06
     2.145767211914E-06 1.392640000000E+05-5.406720000000E+05 3.473408000000E+06
    -2.686976000000E+06 0.000000000000E+00
> EPH C11 D1
C11 2026 04 16 15 00 00 7.021240890026E-06 1.367883584180E-11 0.000000000000E+00
     1.000000000000E+00-9.621875000000E+01 4.155530237371E-09-2.693942478935E+00
    -4.682224243879E-06 1.771400799043E-03 2.285931259394E-06 5.282638313293E+03
     3.996000000000E+05-6.193295121193E-08 1.863428669524E+00 9.685754776001E-08
     9.736498704367E-01 3.206093750000E+02-1.411822571277E+00-7.253159266054E-09
    -3.696582548929E-10                    1.058000000000E+03
     2.000000000000E+00 0.000000000000E+00 3.800000000000E-09 1.900000000000E-09
     4.009680000000E+05 1.000000000000E+00
> EPH C49 D1
C49 2026 04 16 15 00 00-9.296227945015E-04 4.765077221691E-12 0.000000000000E+00
     1.000000000000E+00-9.073437500000E+01 4.672337478753E-09 3.289601125662E-01
    -4.282686859369E-06 4.337280988693E-04 1.212116330862E-06 5.282633373260E+03
     3.996000000000E+05 6.007030606270E-08 1.818267733029E+00 4.190951585770E-08
     9.511896628332E-01 3.303281250000E+02 1.045795457350E+00-7.632103622036E-09
    -3.978737158944E-10                    1.058000000000E+03
     2.000000000000E+00 0.000000000000E+00 1.400000000000E-09 1.400000000000E-09
     4.009680000000E+05 1.000000000000E+00
> EPH C14 D1
C14 2026 04 16 15 00 00-6.335157668218E-04-4.198597025606E-11 0.000000000000E+00
     1.900000000000E+01 7.585937500000E+01 3.558362505796E-09 1.565036549140E-01
     3.692228347063E-06 1.422198372893E-03 8.101575076580E-06 5.282627689362E+03
     3.996000000000E+05 7.031485438347E-08-2.361259991797E+00 2.840533852577E-08
     9.858911344373E-01 2.089218750000E+02-7.131108577582E-02-6.758852961927E-09
     6.518128649079E-10                    1.058000000000E+03
     2.000000000000E+00 0.000000000000E+00 6.200000000000E-09 2.100000000000E-09
     4.009680000000E+05 1.900000000000E+01
> EPH C28 D1
C28 2026 04 16 15 00 00 5.071639316157E-04 4.254374630364E-12 0.000000000000E+00
     1.000000000000E+00-9.201562500000E+01 4.713053460452E-09 8.897359019402E-01
    -4.394445568323E-06 6.846315227449E-05 8.242204785347E-07 5.282624351501E+03
     3.996000000000E+05 2.561137080193E-08 1.819645902801E+00-1.490116119385E-08
     9.486059520112E-01 3.358437500000E+02 3.573574005701E-02-7.641389723125E-09
    -4.146601294017E-10                    1.058000000000E+03
     2.000000000000E+00 0.000000000000E+00-4.300000000000E-09-4.300000000000E-09
     4.009680000000E+05 1.000000000000E+00
> EPH C33 D1
C33 2026 04 16 15 00 00-9.204099187627E-04 2.232880547126E-12 0.000000000000E+00
     1.000000000000E+00 7.379687500000E+01 3.539433145883E-09-3.048727596999E-01
     3.542285412550E-06 6.512020481750E-04 8.442904800177E-06 5.282624612808E+03
     3.996000000000E+05 6.658956408501E-08-2.365526972733E+00 2.747401595116E-08
     9.873288347347E-01 2.033593750000E+02-4.005544309856E-03-6.730280343191E-09
     6.218116152354E-10                    1.058000000000E+03
     2.000000000000E+00 0.000000000000E+00-4.510000000000E-08-4.510000000000E-08
     4.009680000000E+05 1.000000000000E+00
> EPH C21 D1
C21 2026 04 16 15 00 00-8.598443819210E-04 2.613909089177E-12 0.000000000000E+00
     1.000000000000E+00 8.001562500000E+01 3.391569843926E-09 1.597758961760E+00
     4.030298441648E-06 9.156551677734E-04 8.093193173409E-06 5.282627298355E+03
     3.996000000000E+05-9.033828973770E-08-2.356852610223E+00 5.913898348808E-08
     9.877441630291E-01 2.122656250000E+02-3.443587955832E-01-6.606346609425E-09
     5.993106779810E-10                    1.058000000000E+03
     2.000000000000E+00 0.000000000000E+00 1.110000000000E-08 1.110000000000E-08
     4.009680000000E+05 1.000000000000E+00
> EPH C28 CNV2
C28 2026 04 16 15 00 00 5.071638734080E-04 4.254374630364E-12 0.000000000000E+00
     3.807067871094E-03-9.554687500000E+01 4.720196615135E-09 8.810092218218E-01
    -4.622153937817E-06 6.722321268171E-05 1.071020960808E-06 5.282623712983E+03
     3.996000000000E+05 6.146728992462E-08 1.819645795277E+00 2.793967723846E-09
     9.486058795968E-01 3.321328125000E+02 4.446485373964E-02-7.652104455151E-09
    -3.919806132802E-10-2.737976770937E-14 3.000000000000E+00 4.008000000000E+05
     0.000000000000E+00-2.000000000000E+00 3.000000000000E+00 3.000000000000E+00
                       -2.619344741106E-09-2.561137080193E-09-1.012813299894E-08
     0.000000000000E+00 0.000000000000E+00 0.000000000000E+00 2.700000000000E+01
     4.009890000000E+05                                       2.700000000000E+01
> EPH C33 CNV2
C33 2026 04 16 15 00 00-9.204098605551E-04 2.232880547126E-12 0.000000000000E+00
     3.177642822266E-03 7.793750000000E+01 3.541397513421E-09-3.066152099714E-01
     3.818422555923E-06 6.513119442388E-04 8.389353752136E-06 5.282624156654E+03
     3.996000000000E+05 5.960464477539E-08-2.365526961030E+00 2.887099981308E-08
     9.873288135224E-01 2.041757812500E+02-2.261123487726E-03-6.735280551470E-09
     6.214544575012E-10-2.267114523706E-14 3.000000000000E+00 4.008000000000E+05
     0.000000000000E+00-2.000000000000E+00 3.000000000000E+00 3.000000000000E+00
                       -2.619344741106E-09-4.260800778866E-08 3.364402800798E-08
     1.500000000000E+01 0.000000000000E+00 0.000000000000E+00 2.700000000000E+01
     4.009890000000E+05                                       2.700000000000E+01
> EPH C21 CNV2
C21 2026 04 16 15 00 00-8.598443237133E-04 2.613909089177E-12 0.000000000000E+00
     8.053302764893E-03 6.931250000000E+01 3.396212894471E-09 1.598592972088E+00
     3.388151526451E-06 9.128485689871E-04 8.203089237213E-06 5.282625973119E+03
     3.996000000000E+05-9.965151548386E-08-2.356852439061E+00 4.656612873077E-09
     9.877442339806E-01 2.105117187500E+02-3.451878283329E-01-6.603667926418E-09
     5.650235354982E-10-6.166987488042E-14 3.000000000000E+00 4.008000000000E+05
     0.000000000000E+00-2.000000000000E+00 3.000000000000E+00 3.000000000000E+00
                       -3.550667315722E-09 1.490116119385E-08 1.164153218269E-10
     0.000000000000E+00 0.000000000000E+00 0.000000000000E+00 2.700000000000E+01
     4.009890000000E+05                                       2.700000000000E+01
> EPH C37 CNV2
C37 2026 04 16 15 00 00-9.674046887085E-04-1.010125316725E-11 0.000000000000E+00
    -1.052665710449E-02-6.121093750000E+00 3.756942206009E-09 2.617927027512E+00
    -3.082677721977E-07 5.794219323434E-04 1.547764986753E-05 5.282682047154E+03
     3.996000000000E+05 0.000000000000E+00-2.759837637172E-01-3.259629011154E-08
     9.458800192195E-01 3.678125000000E+01-2.578503323642E-01-6.730280343191E-09
    -2.894763435659E-10 8.534378231065E-14 3.000000000000E+00 4.008000000000E+05
     0.000000000000E+00-2.000000000000E+00 3.000000000000E+00 3.000000000000E+00
                       -2.677552402020E-09-1.216540113091E-08-7.741618901491E-09
     1.500000000000E+01 0.000000000000E+00 0.000000000000E+00 2.700000000000E+01
     4.009890000000E+05                                       2.700000000000E+01
> EPH C37 D1
C37 2026 04 16 15 00 00-9.674046887085E-04-1.010125316725E-11 0.000000000000E+00
     1.000000000000E+00-1.093750000000E+00 3.776585881389E-09 2.624121448368E+00
    -2.188608050346E-08 5.781456129625E-04 1.475913450122E-05 5.282680732727E+03
     3.996000000000E+05-1.862645149231E-09-2.759836503411E-01-3.259629011154E-09
     9.458799563140E-01 5.007812500000E+01-2.640380523247E-01-6.749924018572E-09
    -2.982267080537E-10                    1.058000000000E+03
     2.000000000000E+00 0.000000000000E+00-1.680000000000E-08-1.680000000000E-08
     4.009980000000E+05 1.000000000000E+00
> STO C43 D1D2
    2026 04 12 00 00 00 BDUT                                  UTC(NTSC)         
     4.013400000000E+05 0.000000000000E+00 0.000000000000E+00 0.000000000000E+00
