     4.01           N: GNSS NAV DATA    M: MIXED            RINEX VERSION / TYPE
sbf2rin-16.2.0                          20260417 105928 UTC PGM / RUN BY / DATE 
    18                                                      LEAP SECONDS        
                                                            END OF HEADER       
> EPH G01 LNAV
G01 2026 04 16 18 00 00 2.962742000818E-04-8.299139153678E-12 0.000000000000E+00
     1.770000000000E+02-1.197500000000E+02 4.686623788121E-09 2.748277939390E+00
    -6.230548024178E-06 1.696689520031E-03 8.238479495049E-06 5.153618413925E+03
     4.104000000000E+05-7.636845111847E-08 2.383364474777E+00 2.048909664154E-08
     9.576331674367E-01 2.185000000000E+02 1.581088812753E-01-8.175697693483E-09
    -4.289464387695E-10 1.000000000000E+00 2.414000000000E+03 0.000000000000E+00
     2.000000000000E+00 0.000000000000E+00-9.313225746155E-09 4.330000000000E+02
     4.037880000000E+05 4.000000000000E+00
> EPH G02 LNAV
G02 2026 04 16 18 00 00 8.007138967514E-05 7.730704965070E-12 0.000000000000E+00
     3.200000000000E+01-1.156562500000E+02 4.666265797272E-09-2.026424633451E+00
    -5.772337317467E-06 1.682195579633E-02 6.612390279770E-06 5.153767868042E+03
     4.104000000000E+05-4.377216100693E-07 2.221001626684E+00 2.291053533554E-07
     9.626854223177E-01 2.544687500000E+02-7.823772361008E-01-8.227485564941E-09
    -4.603763193788E-10 1.000000000000E+00 2.414000000000E+03 0.000000000000E+00
     2.000000000000E+00 0.000000000000E+00-1.769512891769E-08 3.200000000000E+01
     4.037880000000E+05 4.000000000000E+00
> EPH G03 LNAV
G03 2026 04 16 18 00 00 5.009821616113E-04-1.432454155292E-11 0.000000000000E+00
     8.400000000000E+01 1.431250000000E+01 3.591935332810E-09 6.819191899514E-01
     7.692724466324E-07 6.699017016217E-03 1.315213739872E-05 5.153606517792E+03
     4.104000000000E+05-1.266598701477E-07-2.911585080623E+00 1.862645149231E-08
     9.942144068493E-01 1.451875000000E+02 1.209214163641E+00-7.584958801122E-09
     2.510818871398E-10 1.000000000000E+00 2.414000000000E+03 0.000000000000E+00
     2.000000000000E+00 0.000000000000E+00 1.396983861923E-09 8.400000000000E+01
     4.037880000000E+05 4.000000000000E+00
> EPH G04 LNAV
G04 2026 04 16 18 00 00 5.356036126614E-05 1.477928890381E-12 0.000000000000E+00
     2.100000000000E+02 2.665625000000E+01 4.749483549340E-09-2.652577049750E+00
     1.335516571999E-06 3.722872701474E-03 4.127621650696E-06 5.153703834534E+03
     4.104000000000E+05-1.117587089539E-08-1.842126926266E+00-3.352761268616E-08
     9.707164271041E-01 3.052500000000E+02-2.869378417951E+00-8.255343868208E-09
     1.928651764659E-10 1.000000000000E+00 2.414000000000E+03 0.000000000000E+00
     2.000000000000E+00 0.000000000000E+00-4.656612873077E-09 2.100000000000E+02
     4.037880000000E+05 4.000000000000E+00
> EPH G08 LNAV
G08 2026 04 16 17 59 28 4.604202695191E-04-6.707523425575E-12 0.000000000000E+00
     5.000000000000E+00 6.662500000000E+01 5.417011354552E-09-2.350253879771E+00
     3.185123205185E-06 1.158793596551E-02 1.562759280205E-06 5.153706403732E+03
     4.103680000000E+05 1.378357410431E-07 1.212442579534E+00-2.160668373108E-07
     9.428216426830E-01 3.414375000000E+02 5.379751826772E-01-8.728935023752E-09
     4.089456056545E-10 1.000000000000E+00 2.414000000000E+03 0.000000000000E+00
     2.000000000000E+00 0.000000000000E+00 4.656612873077E-09 5.000000000000E+00
     4.037880000000E+05 4.000000000000E+00
> EPH G09 LNAV
G09 2026 04 16 18 00 00 7.592043839395E-04-3.183231456205E-12 0.000000000000E+00
     6.600000000000E+01 3.240625000000E+01 4.933776940185E-09-1.745172165151E+00
     1.646578311920E-06 3.352046594955E-03 4.386529326439E-06 5.153741811752E+03
     4.104000000000E+05-3.539025783539E-08-1.906693680279E+00 5.215406417847E-08
     9.649642463827E-01 2.968750000000E+02 2.051333602073E+00-8.389278018532E-09
     2.196520065306E-10 1.000000000000E+00 2.414000000000E+03 0.000000000000E+00
     2.000000000000E+00 0.000000000000E+00 4.656612873077E-10 6.600000000000E+01
     4.045680000000E+05 4.000000000000E+00
> EPH G14 LNAV
G14 2026 04 16 18 00 00 7.434780709445E-04 1.364242052659E-12 0.000000000000E+00
     1.910000000000E+02 1.075000000000E+02 4.633764443460E-09 2.957408739488E-01
     5.621463060379E-06 6.971364724450E-03 1.198798418045E-05 5.153668777466E+03
     4.104000000000E+05 1.043081283569E-07 2.290343403825E-01 1.527369022369E-07
     9.428475363330E-01 1.403437500000E+02-2.727676676419E+00-8.191769791521E-09
     2.817974522807E-10 1.000000000000E+00 2.414000000000E+03 0.000000000000E+00
     2.000000000000E+00 0.000000000000E+00-8.381903171539E-09 7.030000000000E+02
     4.037880000000E+05 4.000000000000E+00
> EPH G17 LNAV
G17 2026 04 16 18 00 00-1.143040135503E-04-8.981260180008E-12 0.000000000000E+00
     7.700000000000E+01 3.990625000000E+01 5.105569810333E-09-2.380404159102E+00
     2.406537532806E-06 1.259292813484E-02 1.039355993271E-06 5.153616243362E+03
     4.104000000000E+05 9.313225746155E-09 1.317886461158E+00 1.657754182816E-07
     9.584047791889E-01 3.578125000000E+02-1.115001006096E+00-8.523212168855E-09
     2.732256666600E-10 1.000000000000E+00 2.414000000000E+03 0.000000000000E+00
     2.000000000000E+00 0.000000000000E+00-1.117587089539E-08 7.700000000000E+01
     4.037880000000E+05 4.000000000000E+00
> EPH G19 LNAV
G19 2026 04 16 18 00 00 6.972537375987E-04 1.136868377216E-12 0.000000000000E+00
     6.600000000000E+01 2.687500000000E+01 5.251647323619E-09-6.189853685051E-01
     1.432374119759E-06 1.134568592533E-02 1.227483153343E-06 5.153726131439E+03
     4.104000000000E+05 9.313225746155E-08 1.361763315457E+00-1.769512891769E-07
     9.575456351963E-01 3.530000000000E+02 2.953236802875E+00-8.855011703924E-09
     2.539391490134E-10 1.000000000000E+00 2.414000000000E+03 0.000000000000E+00
     2.000000000000E+00 0.000000000000E+00-1.536682248116E-08 6.600000000000E+01
     4.037880000000E+05 4.000000000000E+00
> EPH G22 LNAV
G22 2026 04 16 17 59 44-1.760246232152E-05 6.025402399246E-12 0.000000000000E+00
     2.200000000000E+01 1.267500000000E+02 4.253391456541E-09-1.734990209969E+00
     6.640329957008E-06 1.200754533056E-02 1.183524727821E-05 5.153635143280E+03
     4.103840000000E+05-2.216547727585E-07 3.046073219919E-01 1.732259988785E-07
     9.580631088198E-01 1.550312500000E+02-9.935791931901E-01-8.023191340981E-09
     4.039453973758E-10 1.000000000000E+00 2.414000000000E+03 0.000000000000E+00
     2.000000000000E+00 0.000000000000E+00-1.117587089539E-08 2.200000000000E+01
     4.037880000000E+05 4.000000000000E+00
> EPH G32 LNAV
G32 2026 04 16 18 00 00 5.624257028103E-06 1.955413608812E-11 0.000000000000E+00
     6.800000000000E+01 3.690625000000E+01 4.742697552390E-09-1.687892333365E+00
     1.952052116394E-06 9.391015162691E-03 4.425644874573E-06 5.153742036819E+03
     4.104000000000E+05 2.235174179077E-07-1.889534979539E+00 4.842877388000E-08
     9.679735610356E-01 2.997812500000E+02-1.981043350773E+00-8.213199255573E-09
     2.550106222160E-10 1.000000000000E+00 2.414000000000E+03 0.000000000000E+00
     2.000000000000E+00 0.000000000000E+00 9.313225746155E-10 6.800000000000E+01
     4.037880000000E+05 4.000000000000E+00
> EPH G01 CNAV
G01 2026 04 16 17 30 00 2.962888684124E-04-8.245848448496E-12 0.000000000000E+00
     3.432750701904E-03-1.131132812500E+02 4.716446458926E-09 2.486524458936E+00
    -5.866400897503E-06 1.696473336779E-03 8.164905011654E-06 5.153617218002E+03
     3.447000000000E+05-8.102506399155E-08 2.383379256833E+00 4.749745130539E-08
     9.576338652486E-01 2.192304687500E+02 1.573105032425E-01-8.195106308265E-09
    -4.368039089218E-10-3.060604607003E-14-2.000000000000E+00 3.000000000000E+00
    -1.000000000000E+00 1.000000000000E+00-9.313225746155E-09 7.000000000000E+00
    -2.910383045673E-10 5.937181413174E-09-1.746229827404E-10-2.910383045673E-10
     4.037820000000E+05 2.414000000000E+03
> EPH G03 CNAV
G03 2026 04 16 17 30 00 5.010078893974E-04-1.432809426660E-11 0.000000000000E+00
    -2.060890197754E-03 1.764453125000E+01 3.591756753943E-09 4.194864364024E-01
     8.884817361832E-07 6.699028133880E-03 1.299008727074E-05 5.153605924534E+03
     3.609000000000E+05-1.313164830208E-07-2.911571503280E+00 4.563480615616E-08
     9.942139562705E-01 1.473789062500E+02 1.209091731295E+00-7.583652267322E-09
     2.678683006471E-10 2.393549756758E-14-2.000000000000E+00 2.000000000000E+00
    -2.000000000000E+00 1.000000000000E+00 1.396983861923E-09 7.000000000000E+00
     5.529727786779E-10-2.008164301515E-09 1.862645149231E-09 5.005858838558E-09
     4.037820000000E+05 2.414000000000E+03
> EPH G04 CNAV
G04 2026 04 16 17 30 00 5.355750909075E-05 1.527666881884E-12 0.000000000000E+00
     1.861095428467E-03 2.630859375000E+01 4.754483757618E-09-2.914958977136E+00
     1.316890120506E-06 3.723260888364E-03 4.279427230358E-06 5.153703386848E+03
     3.879000000000E+05-1.210719347000E-08-1.842112052778E+00-2.700835466385E-08
     9.707160964846E-01 3.021757812500E+02-2.869536329718E+00-8.250822914800E-09
     1.905436511936E-10-1.831130961455E-14-2.000000000000E+00 3.000000000000E+00
    -4.000000000000E+00 1.000000000000E+00-4.656612873077E-09 7.000000000000E+00
    -2.037268131971E-10 3.317836672068E-09-1.426087692380E-09-1.396983861923E-09
     4.037820000000E+05 2.414000000000E+03
> EPH G08 CNAV
G08 2026 04 16 17 25 00 4.604340938386E-04-6.728839707648E-12 0.000000000000E+00
     3.394603729248E-03 6.150000000000E+01 5.429869032983E-09-2.651809589028E+00
     3.050081431866E-06 1.158889592625E-02 1.637265086174E-06 5.153705601388E+03
     4.032000000000E+05 3.259629011154E-08 1.212460928184E+00-2.337619662285E-07
     9.428209148812E-01 3.392734375000E+02 5.379015986292E-01-8.693341347469E-09
     3.512646315818E-10-3.965270498674E-14-2.000000000000E+00 3.000000000000E+00
    -4.000000000000E+00 1.000000000000E+00 4.656612873077E-09 7.000000000000E+00
    -1.047737896442E-09-4.685716703534E-09 6.257323548198E-09 6.839400157332E-09
     4.041000000000E+05 2.414000000000E+03
> EPH G09 CNAV
G09 2026 04 16 17 30 00 7.592099427711E-04-3.211653165636E-12 0.000000000000E+00
     4.191398620605E-04 3.286718750000E+01 4.916811947810E-09-2.007708730293E+00
     1.711770892143E-06 3.352210449520E-03 4.440546035767E-06 5.153741678724E+03
     3.402000000000E+05 0.000000000000E+00-1.906678571993E+00 6.146728992462E-08
     9.649639669654E-01 2.962578125000E+02 2.051334826535E+00-8.363149022205E-09
     2.176876389925E-10-1.155356439965E-15-2.000000000000E+00 3.000000000000E+00
    -1.000000000000E+00 1.000000000000E+00 4.656612873077E-10 7.000000000000E+00
    -5.820766091347E-10-7.275957614183E-10 5.064066499472E-09 5.617039278150E-09
     4.045620000000E+05 2.414000000000E+03
> EPH G14 CNAV
G14 2026 04 16 17 30 00 7.434755098075E-04 1.310951347477E-12 0.000000000000E+00
     4.839420318604E-03 1.124062500000E+02 4.669658795747E-09 3.294892939231E-02
     5.858018994331E-06 6.971428985707E-03 1.217983663082E-05 5.153668997400E+03
     3.717000000000E+05 9.406358003616E-08 2.290488949544E-01 6.053596735001E-08
     9.428467865874E-01 1.358437500000E+02-2.727427650458E+00-8.254751649876E-09
     3.091200189467E-10-4.961492938417E-14-2.000000000000E+00 3.000000000000E+00
    -3.000000000000E+00 1.000000000000E+00-8.381903171539E-09 7.000000000000E+00
    -2.619344741106E-10 5.326000973582E-09-1.076841726899E-09-7.275957614183E-10
     4.037940000000E+05 2.414000000000E+03
> EPH G17 CNAV
G17 2026 04 16 17 30 00-1.142879191320E-04-8.949285756898E-12 0.000000000000E+00
     5.257606506348E-03 4.327343750000E+01 5.123963433644E-09-2.642826801693E+00
     2.411194145679E-06 1.259395049419E-02 8.502975106239E-07 5.153616034443E+03
     3.483000000000E+05 3.725290298462E-09 1.317901728171E+00 1.378357410431E-07
     9.584043447022E-01 3.644804687500E+02-1.115129715823E+00-8.506190694750E-09
     2.825117677491E-10-6.432937461015E-14-2.000000000000E+00 3.000000000000E+00
    -1.000000000000E+00 1.000000000000E+00-1.117587089539E-08 7.000000000000E+00
    -8.440110832453E-10 7.014023140073E-09 0.000000000000E+00 0.000000000000E+00
     4.038120000000E+05 2.414000000000E+03
> EPH G32 CNAV
G32 2026 04 16 17 30 00 5.589157808572E-06 1.955768880180E-11 0.000000000000E+00
    -1.472949981689E-03 3.510546875000E+01 4.708767567641E-09-1.950426752406E+00
     1.844950020313E-06 9.390446241014E-03 4.527159035206E-06 5.153742441405E+03
     3.537000000000E+05 1.573935151100E-07-1.889520489336E+00-2.700835466385E-08
     9.679732567486E-01 2.978203125000E+02-1.981044899272E+00-8.159747692580E-09
     2.964409193827E-10 1.438745755429E-14-2.000000000000E+00 3.000000000000E+00
    -2.000000000000E+00 1.000000000000E+00 9.313225746155E-10 7.000000000000E+00
    -2.910383045673E-10-1.891748979688E-09 8.614733815193E-09 9.051291272044E-09
     4.037940000000E+05 2.414000000000E+03
> ION G03 LNAV
    2026 04 16 16 28 36 1.583248376846E-08 1.490116119385E-08-1.192092895508E-07
    -1.192092895508E-07 1.064960000000E+05 6.553600000000E+04-1.966080000000E+05
    -1.966080000000E+05 0.000000000000E+00
> STO G03 LNAV
    2026 04 18 19 50 24 GPUT                                  UTC(USNO)         
     4.055340000000E+05-3.725290298462E-09 0.000000000000E+00 0.000000000000E+00
> EPH G06 CNAV
G06 2026 04 16 17 30 00-6.101670151111E-04 1.918465386552E-12 0.000000000000E+00
     6.699085235596E-03-1.342617187500E+02 4.111242678331E-09 1.703539777555E+00
    -6.832182407379E-06 3.782018844504E-03 8.383765816689E-06 5.153662709969E+03
     3.528000000000E+05 8.661299943924E-08 2.335161463042E+00 0.000000000000E+00
     9.864313535110E-01 2.294726562500E+02-5.345816940333E-01-7.979561615678E-09
    -6.364550823374E-10-5.702664994244E-14-2.000000000000E+00 3.000000000000E+00
    -2.000000000000E+00 1.000000000000E+00 3.725290298462E-09 7.000000000000E+00
     3.201421350241E-10-3.929017111659E-09 1.775333657861E-09 2.211891114712E-09
     4.057800000000E+05 2.414000000000E+03
> EPH G06 LNAV
G06 2026 04 16 18 00 00-6.101634353399E-04 1.932676241267E-12 0.000000000000E+00
     2.000000000000E+01-1.263437500000E+02 4.125171829965E-09 1.965917415666E+00
    -6.297603249550E-06 3.784353029914E-03 8.096918463707E-06 5.153663282394E+03
     4.104000000000E+05 1.396983861923E-07 2.335146901156E+00 3.166496753693E-08
     9.864302285270E-01 2.342812500000E+02-5.344173527421E-01-7.994975879979E-09
    -6.007393089178E-10 1.000000000000E+00 2.414000000000E+03 0.000000000000E+00
     2.000000000000E+00 0.000000000000E+00 3.725290298462E-09 2.000000000000E+01
     4.057920000000E+05 4.000000000000E+00
> EPH R05 FDMA
R05 2026 04 16 16 45 00 1.665875315666E-04 9.094947017729E-13 4.050600000000E+05
     1.294926904297E+04-2.765436172485E+00-9.313225746155E-10 0.000000000000E+00
     5.562438476562E+03 9.185352325439E-01-0.000000000000E+00 1.000000000000E+00
     2.128014208984E+04 1.442279815674E+00-2.793967723846E-09 0.000000000000E+00
     1.790000000000E+02 2.793967723846E-09 3.000000000000E+00 3.000000000000E+00
> EPH R20 FDMA
R20 2026 04 16 16 45 00 2.310434356332E-04 9.094947017729E-13 4.050600000000E+05
     1.939841845703E+04 1.606222152710E+00-2.793967723846E-09 2.000000000000E+00
     7.627567871094E+03 1.223692893982E+00-0.000000000000E+00 2.000000000000E+00
     1.474879687500E+04-2.744331359863E+00-1.862645149231E-09 0.000000000000E+00
     1.790000000000E+02 1.862645149231E-09 3.000000000000E+00 3.000000000000E+00
> EPH R06 FDMA
R06 2026 04 16 16 45 00 2.526864409447E-05 9.094947017729E-13 4.050600000000E+05
     2.339191357422E+04-1.230953216553E+00-1.862645149231E-09 0.000000000000E+00
    -4.513853027344E+03 2.872180938721E-01-1.862645149231E-09-4.000000000000E+00
     9.149310546875E+03 3.290475845337E+00-0.000000000000E+00 0.000000000000E+00
     1.790000000000E+02 9.313225746155E-09 0.000000000000E+00 3.000000000000E+00
> EPH R21 FDMA
R21 2026 04 16 16 45 00-2.991948276758E-04-3.637978807092E-12 4.050600000000E+05
     1.036172802734E+04 2.423876762390E+00-0.000000000000E+00 0.000000000000E+00
    -5.029646484375E+03 1.964036941528E+00-2.793967723846E-09 4.000000000000E+00
     2.274971728516E+04-6.719284057617E-01-1.862645149231E-09 0.000000000000E+00
     1.790000000000E+02 9.313225746155E-10 3.000000000000E+00 3.000000000000E+00
> EPH R19 FDMA
R19 2026 04 16 16 45 00 4.289764910936E-05 1.818989403546E-12 4.050600000000E+05
     1.844978710938E+04-1.624279022217E-01-2.793967723846E-09 0.000000000000E+00
     1.740384667969E+04-3.247117996216E-01 2.793967723846E-09 3.000000000000E+00
    -2.451447265625E+03-3.545313835144E+00-0.000000000000E+00 0.000000000000E+00
     2.430000000000E+02 1.862645149231E-09 5.000000000000E+00 3.000000000000E+00
> EPH R04 FDMA
R04 2026 04 16 16 45 00 3.495244309306E-04 2.728484105319E-12 4.050600000000E+05
    -4.174213867188E+03-2.797164916992E+00-0.000000000000E+00 0.000000000000E+00
     1.223808154297E+04 1.112444877625E+00 1.862645149231E-09 6.000000000000E+00
     2.202013281250E+04-1.151129722595E+00-2.793967723846E-09 0.000000000000E+00
     2.430000000000E+02-2.793967723846E-09 4.000000000000E+00 3.000000000000E+00
> EPH R12 FDMA
R12 2026 04 16 16 45 00 6.783567368984E-05 9.094947017729E-13 4.050600000000E+05
    -6.506972167969E+03 2.873239517212E-01 1.862645149231E-09 0.000000000000E+00
    -1.632652392578E+04-2.513974189758E+00-4.656612873077E-09-1.000000000000E+00
     1.851495117188E+04-2.117972373962E+00-9.313225746155E-10 0.000000000000E+00
     1.790000000000E+02 7.450580596924E-09 1.000000000000E+00 3.000000000000E+00
> STO R05 LNAV
    2026 04 16 00 00 00 GLUT                                  UTC(SU)           
     4.051480000000E+05-0.000000000000E+00 0.000000000000E+00 0.000000000000E+00
> STO R05 LNAV
    2026 04 16 00 00 00 GLGP                                                    
     4.051480000000E+05 2.793967723846E-09 0.000000000000E+00 0.000000000000E+00
> EPH R11 FDMA
R11 2026 04 16 16 45 00 1.728069037199E-05-1.818989403546E-12 4.052700000000E+05
     2.562625976562E+03-1.127977371216E-01 9.313225746155E-10 0.000000000000E+00
    -2.524943066406E+04-3.560304641724E-01-6.519258022308E-09 0.000000000000E+00
     2.461396484375E+03-3.552979469299E+00 9.313225746155E-10 0.000000000000E+00
     1.790000000000E+02 2.793967723846E-09 7.000000000000E+00 3.000000000000E+00
> EPH R07 FDMA
R07 2026 04 16 16 45 00 1.205932348967E-04 0.000000000000E+00 4.059000000000E+05
     1.939048486328E+04 1.297885894775E+00-1.862645149231E-09 0.000000000000E+00
    -1.272793066406E+04-6.965990066528E-01-3.725290298462E-09 5.000000000000E+00
    -1.061907861328E+04 3.186664581299E+00 1.862645149231E-09 0.000000000000E+00
     2.430000000000E+02 1.862645149231E-09 1.000000000000E+00 3.000000000000E+00
> EPH E03 INAV
E03 2026 04 16 15 50 00-1.159822568297E-05-2.188471626141E-12 0.000000000000E+00
     3.600000000000E+01 1.562500000000E+01 3.548004931504E-09 6.238765253843E-01
     8.307397365570E-07 4.260867135599E-04 2.330169081688E-06 5.440601343155E+03
     4.026000000000E+05-2.048909664154E-08-1.699453401901E+00 1.862645149231E-08
     9.673221835945E-01 2.940312500000E+02 7.672077981986E-02-6.007035931444E-09
     6.535986535788E-11 5.170000000000E+02 2.414000000000E+03
     3.120000000000E+00 0.000000000000E+00 2.328306436539E-10 4.656612873077E-10
     4.037670000000E+05
> EPH E05 INAV
E05 2026 04 16 16 10 00 2.762535586953E-05 2.799538378895E-12 0.000000000000E+00
     3.800000000000E+01 1.787500000000E+01 3.617650689672E-09 2.250226998004E+00
     8.065253496170E-07 3.491389798000E-04 2.276152372360E-06 5.440599954605E+03
     4.038000000000E+05 1.676380634308E-08-1.699450091318E+00-2.048909664154E-08
     9.673357009576E-01 2.990000000000E+02-6.181672900860E-01-6.029179710964E-09
     6.964575816824E-11 5.170000000000E+02 2.414000000000E+03
     3.600000000000E+00 0.000000000000E+00 1.164153218269E-09 1.164153218269E-09
     4.044650000000E+05
> EPH E07 INAV
E07 2026 04 16 16 10 00-5.762680666521E-05-2.586375558167E-12 0.000000000000E+00
     3.800000000000E+01 6.593750000000E+00 3.704440019082E-09-2.386509245404E-01
     2.142041921616E-07 4.703936865553E-04 2.330169081688E-06 5.440599538803E+03
     4.038000000000E+05 1.862645149231E-08-1.699374948531E+00-1.676380634308E-08
     9.673624548034E-01 2.928437500000E+02-4.817279384508E-01-6.069895692662E-09
    -3.928735076157E-12 5.170000000000E+02 2.414000000000E+03
     3.120000000000E+00 0.000000000000E+00 2.328306436539E-09 2.793967723846E-09
     4.044650000000E+05
> EPH E08 INAV
E08 2026 04 16 16 10 00-1.285391044803E-04-6.991740519879E-12 0.000000000000E+00
     3.800000000000E+01 1.050000000000E+01 3.535861568541E-09 2.138795141060E-01
     5.122274160385E-07 4.280729917809E-04 2.186745405197E-06 5.440602096558E+03
     4.038000000000E+05 2.793967723846E-08-1.696620055813E+00 1.676380634308E-08
     9.730824220687E-01 2.984375000000E+02-1.520756374179E-01-5.985606467392E-09
     4.357324357192E-11 5.170000000000E+02 2.414000000000E+03
     3.120000000000E+00 0.000000000000E+00-6.519258022308E-09-7.217749953270E-09
     4.044650000000E+05
> EPH E13 INAV
E13 2026 04 16 16 10 00-5.265080835670E-05-8.384404281969E-13 0.000000000000E+00
     3.800000000000E+01-1.723750000000E+02 2.640109971177E-09 1.410577025269E+00
    -7.918104529381E-06 3.119570901617E-04 1.083128154278E-05 5.440610256195E+03
     4.038000000000E+05 5.774199962616E-08 2.501664528758E+00 1.322478055954E-07
     9.981693137128E-01 1.254687500000E+02-7.351115218313E-02-5.427368928844E-09
    -5.239503960657E-10 5.170000000000E+02 2.414000000000E+03
     3.600000000000E+00 0.000000000000E+00 3.026798367500E-09 2.793967723846E-09
     4.044650000000E+05
> EPH E15 INAV
E15 2026 04 16 16 10 00-2.510606427677E-04-2.899014361901E-12 0.000000000000E+00
     3.800000000000E+01-1.664062500000E+02 2.564749689262E-09 2.407896635200E+00
    -7.864087820053E-06 3.203281667084E-04 1.067481935024E-05 5.440609243393E+03
     4.038000000000E+05-4.656612873077E-08 2.501574999634E+00 4.470348358154E-08
     9.981252842673E-01 1.291250000000E+02-2.686067879109E-01-5.324507501395E-09
    -5.018066165455E-10 5.170000000000E+02 2.414000000000E+03
     3.120000000000E+00 0.000000000000E+00 3.026798367500E-09 3.026798367500E-09
     4.044650000000E+05
> EPH E18 INAV
E18 2026 04 16 15 40 00 2.676112344489E-03 4.247624474374E-11 0.000000000000E+00
     3.500000000000E+01 1.543750000000E+01 8.855368861658E-09-5.124477800670E-01
     7.953494787216E-07 1.661262852140E-01-1.503154635429E-06 5.289297950745E+03
     4.020000000000E+05 1.888722181320E-06 1.323040696058E+00-3.017485141754E-07
     8.539229783253E-01 3.128750000000E+02 3.086503850303E+00-1.269445734653E-08
     1.921508609975E-10 5.170000000000E+02 2.414000000000E+03
     3.120000000000E+00 1.300000000000E+02-3.958120942116E-09-4.656612873077E-09
     4.037670000000E+05
> EPH E21 INAV
E21 2026 04 16 16 10 00-7.356318528764E-04-2.785327524180E-12 0.000000000000E+00
     3.800000000000E+01 1.973750000000E+02 2.912621322369E-09 8.978963530329E-01
     9.229406714439E-06 9.135890286416E-05 1.187250018120E-05 5.440620918274E+03
     4.038000000000E+05 6.146728992462E-08 4.021986090036E-01 3.539025783539E-08
     9.620988492217E-01 8.684375000000E+01 1.768692176443E+00-5.584518331890E-09
     5.300220775470E-10 5.170000000000E+02 2.414000000000E+03
     3.600000000000E+00 0.000000000000E+00 2.328306436539E-10 0.000000000000E+00
     4.044650000000E+05
> EPH E23 INAV
E23 2026 04 16 16 10 00-3.185757668689E-05-1.278976924368E-12 0.000000000000E+00
     3.800000000000E+01 1.988750000000E+02 2.917264372914E-09-4.210290140284E-01
     9.212642908096E-06 2.671050606295E-04 1.269392669201E-05 5.440619842529E+03
     4.038000000000E+05 5.029141902924E-08 3.988693205197E-01-2.421438694000E-08
     9.640248130573E-01 6.325000000000E+01 2.297843144059E+00-5.562374552370E-09
     5.325221816864E-10 5.170000000000E+02 2.414000000000E+03
     3.120000000000E+00 0.000000000000E+00-4.656612873077E-10 6.984919309616E-10
     4.044650000000E+05
> EPH E26 INAV
E26 2026 04 16 15 50 00 2.778128255159E-04 1.078603872884E-11 0.000000000000E+00
     3.600000000000E+01-1.883125000000E+02 2.658682173356E-09 8.047857119952E-01
    -8.637085556984E-06 1.995054772124E-04 1.106597483158E-05 5.440610656738E+03
     4.026000000000E+05 6.891787052155E-08 2.498630656099E+00-6.146728992462E-08
     9.914543851405E-01 1.114687500000E+02-3.990854271671E-01-5.499157633417E-09
    -6.378837132742E-10 5.170000000000E+02 2.414000000000E+03
     3.120000000000E+00 0.000000000000E+00-6.519258022308E-09-7.217749953270E-09
     4.037670000000E+05
> EPH E27 INAV
E27 2026 04 16 16 10 00-9.629332344048E-04-1.050182163453E-11 0.000000000000E+00
     3.800000000000E+01 1.935312500000E+02 2.934407944155E-09 3.004743172871E+00
     8.877366781235E-06 1.508729765192E-04 1.148134469986E-05 5.440620325089E+03
     4.038000000000E+05 5.587935447693E-09 4.021604912101E-01 8.940696716309E-08
     9.620708460438E-01 9.818750000000E+01 4.610736549399E-01-5.552374135812E-09
     4.918061999880E-10 5.170000000000E+02 2.414000000000E+03
     3.600000000000E+00 0.000000000000E+00 0.000000000000E+00-2.328306436539E-10
     4.044650000000E+05
> EPH E32 INAV
E32 2026 04 16 15 50 00-1.345557393506E-05-2.188471626141E-12 0.000000000000E+00
     3.600000000000E+01 9.687500000000E+00 3.911234347181E-09 1.172943086268E+00
     4.991888999939E-07 2.207891084254E-04 1.825392246246E-06 5.440596082687E+03
     4.026000000000E+05 1.303851604462E-08-1.680255858567E+00 2.235174179077E-08
     9.470679613649E-01 2.943125000000E+02-9.016847447089E-01-6.204544158454E-09
     3.857303529318E-11 5.170000000000E+02 2.414000000000E+03
     3.120000000000E+00 3.900000000000E+02-3.492459654808E-09-2.561137080193E-09
     4.037670000000E+05
> EPH E34 INAV
E34 2026 04 16 15 50 00-2.483060234226E-04-2.344791028008E-12 0.000000000000E+00
     3.600000000000E+01-1.672500000000E+02 2.453673633927E-09 1.283693779296E+00
    -8.000060915947E-06 1.203269930556E-04 9.687617421150E-06 5.440615713120E+03
     4.026000000000E+05-8.568167686462E-08 2.499747747659E+00 2.793967723846E-08
     9.979757169858E-01 1.487187500000E+02 1.489473692386E+00-5.349508542789E-09
    -5.625234313588E-10 5.170000000000E+02 2.414000000000E+03
     3.120000000000E+00 0.000000000000E+00 2.793967723846E-09 3.492459654808E-09
     4.034940000000E+05
> EPH E03 FNAV
E03 2026 04 16 15 50 00-1.159927342087E-05-2.188471626141E-12 0.000000000000E+00
     3.600000000000E+01 1.562500000000E+01 3.548004931504E-09 6.238765253843E-01
     8.307397365570E-07 4.260867135599E-04 2.330169081688E-06 5.440601343155E+03
     4.026000000000E+05-2.048909664154E-08-1.699453401901E+00 1.862645149231E-08
     9.673221835945E-01 2.940312500000E+02 7.672077981986E-02-6.007035931444E-09
     6.535986535788E-11 2.580000000000E+02 2.414000000000E+03
     3.120000000000E+00 0.000000000000E+00 2.328306436539E-10 0.000000000000E+00
     4.038300000000E+05
> EPH E05 FNAV
E05 2026 04 16 16 10 00 2.762448275462E-05 2.799538378895E-12 0.000000000000E+00
     3.800000000000E+01 1.787500000000E+01 3.617650689672E-09 2.250226998004E+00
     8.065253496170E-07 3.491389798000E-04 2.276152372360E-06 5.440599954605E+03
     4.038000000000E+05 1.676380634308E-08-1.699450091318E+00-2.048909664154E-08
     9.673357009576E-01 2.990000000000E+02-6.181672900860E-01-6.029179710964E-09
     6.964575816824E-11 2.580000000000E+02 2.414000000000E+03
     3.600000000000E+00 0.000000000000E+00 1.164153218269E-09 0.000000000000E+00
     4.045400000000E+05
> EPH E07 FNAV
E07 2026 04 16 16 10 00-5.762808723375E-05-2.586375558167E-12 0.000000000000E+00
     3.800000000000E+01 6.593750000000E+00 3.704440019082E-09-2.386509245404E-01
     2.142041921616E-07 4.703936865553E-04 2.330169081688E-06 5.440599538803E+03
     4.038000000000E+05 1.862645149231E-08-1.699374948531E+00-1.676380634308E-08
     9.673624548034E-01 2.928437500000E+02-4.817279384508E-01-6.069895692662E-09
    -3.928735076157E-12 2.580000000000E+02 2.414000000000E+03
     3.120000000000E+00 0.000000000000E+00 2.328306436539E-09 0.000000000000E+00
     4.045400000000E+05
> EPH E08 FNAV
E08 2026 04 16 16 10 00-1.285392208956E-04-7.005951374595E-12 0.000000000000E+00
     3.800000000000E+01 1.050000000000E+01 3.535861568541E-09 2.138795141060E-01
     5.122274160385E-07 4.280729917809E-04 2.186745405197E-06 5.440602096558E+03
     4.038000000000E+05 2.793967723846E-08-1.696620055813E+00 1.676380634308E-08
     9.730824220687E-01 2.984375000000E+02-1.520756374179E-01-5.985606467392E-09
     4.357324357192E-11 2.580000000000E+02 2.414000000000E+03
     3.120000000000E+00 0.000000000000E+00-6.519258022308E-09 0.000000000000E+00
     4.045400000000E+05
> EPH E13 FNAV
E13 2026 04 16 16 10 00-5.265156505629E-05-8.384404281969E-13 0.000000000000E+00
     3.800000000000E+01-1.723750000000E+02 2.640109971177E-09 1.410577025269E+00
    -7.918104529381E-06 3.119570901617E-04 1.083128154278E-05 5.440610256195E+03
     4.038000000000E+05 5.774199962616E-08 2.501664528758E+00 1.322478055954E-07
     9.981693137128E-01 1.254687500000E+02-7.351115218313E-02-5.427368928844E-09
    -5.239503960657E-10 2.580000000000E+02 2.414000000000E+03
     3.600000000000E+00 0.000000000000E+00 3.026798367500E-09 0.000000000000E+00
     4.045400000000E+05
> EPH E15 FNAV
E15 2026 04 16 16 10 00-2.510616322979E-04-2.899014361901E-12 0.000000000000E+00
     3.800000000000E+01-1.664062500000E+02 2.564749689262E-09 2.407896635200E+00
    -7.864087820053E-06 3.203281667084E-04 1.067481935024E-05 5.440609243393E+03
     4.038000000000E+05-4.656612873077E-08 2.501574999634E+00 4.470348358154E-08
     9.981252842673E-01 1.291250000000E+02-2.686067879109E-01-5.324507501395E-09
    -5.018066165455E-10 2.580000000000E+02 2.414000000000E+03
     3.120000000000E+00 0.000000000000E+00 3.026798367500E-09 0.000000000000E+00
     4.045400000000E+05
> EPH E18 FNAV
E18 2026 04 16 15 40 00 2.676112460904E-03 4.247624474374E-11 0.000000000000E+00
     3.500000000000E+01 1.543750000000E+01 8.855368861658E-09-5.124477800670E-01
     7.953494787216E-07 1.661262852140E-01-1.503154635429E-06 5.289297950745E+03
     4.020000000000E+05 1.888722181320E-06 1.323040696058E+00-3.017485141754E-07
     8.539229783253E-01 3.128750000000E+02 3.086503850303E+00-1.269445734653E-08
     1.921508609975E-10 2.580000000000E+02 2.414000000000E+03
     3.120000000000E+00 1.600000000000E+01-3.958120942116E-09 0.000000000000E+00
     4.038100000000E+05
> EPH E21 FNAV
E21 2026 04 16 16 10 00-7.356326095760E-04-2.785327524180E-12 0.000000000000E+00
     3.800000000000E+01 1.973750000000E+02 2.912621322369E-09 8.978963530329E-01
     9.229406714439E-06 9.135890286416E-05 1.187250018120E-05 5.440620918274E+03
     4.038000000000E+05 6.146728992462E-08 4.021986090036E-01 3.539025783539E-08
     9.620988492217E-01 8.684375000000E+01 1.768692176443E+00-5.584518331890E-09
     5.300220775470E-10 2.580000000000E+02 2.414000000000E+03
     3.600000000000E+00 0.000000000000E+00 2.328306436539E-10 0.000000000000E+00
     4.045400000000E+05
> EPH E23 FNAV
E23 2026 04 16 16 10 00-3.185949753970E-05-1.278976924368E-12 0.000000000000E+00
     3.800000000000E+01 1.988750000000E+02 2.917264372914E-09-4.210290140284E-01
     9.212642908096E-06 2.671050606295E-04 1.269392669201E-05 5.440619842529E+03
     4.038000000000E+05 5.029141902924E-08 3.988693205197E-01-2.421438694000E-08
     9.640248130573E-01 6.325000000000E+01 2.297843144059E+00-5.562374552370E-09
     5.325221816864E-10 2.580000000000E+02 2.414000000000E+03
     3.120000000000E+00 0.000000000000E+00-4.656612873077E-10 0.000000000000E+00
     4.045400000000E+05
> EPH E26 FNAV
E26 2026 04 16 15 50 00 2.778127091005E-04 1.078603872884E-11 0.000000000000E+00
     3.600000000000E+01-1.883125000000E+02 2.658682173356E-09 8.047857119952E-01
    -8.637085556984E-06 1.995054772124E-04 1.106597483158E-05 5.440610656738E+03
     4.026000000000E+05 6.891787052155E-08 2.498630656099E+00-6.146728992462E-08
     9.914543851405E-01 1.114687500000E+02-3.990854271671E-01-5.499157633417E-09
    -6.378837132742E-10 2.580000000000E+02 2.414000000000E+03
     3.120000000000E+00 0.000000000000E+00-6.519258022308E-09 0.000000000000E+00
     4.038100000000E+05
> EPH E27 FNAV
E27 2026 04 16 16 10 00-9.629339328967E-04-1.050182163453E-11 0.000000000000E+00
     3.800000000000E+01 1.935312500000E+02 2.934407944155E-09 3.004743172871E+00
     8.877366781235E-06 1.508729765192E-04 1.148134469986E-05 5.440620325089E+03
     4.038000000000E+05 5.587935447693E-09 4.021604912101E-01 8.940696716309E-08
     9.620708460438E-01 9.818750000000E+01 4.610736549399E-01-5.552374135812E-09
     4.918061999880E-10 2.580000000000E+02 2.414000000000E+03
     3.600000000000E+00 0.000000000000E+00 0.000000000000E+00 0.000000000000E+00
     4.045400000000E+05
> EPH E32 FNAV
E32 2026 04 16 15 50 00-1.345708733425E-05-2.188471626141E-12 0.000000000000E+00
     3.600000000000E+01 9.687500000000E+00 3.911234347181E-09 1.172943086268E+00
     4.991888999939E-07 2.207891084254E-04 1.825392246246E-06 5.440596082687E+03
     4.026000000000E+05 1.303851604462E-08-1.680255858567E+00 2.235174179077E-08
     9.470679613649E-01 2.943125000000E+02-9.016847447089E-01-6.204544158454E-09
     3.857303529318E-11 2.580000000000E+02 2.414000000000E+03
     3.120000000000E+00 4.800000000000E+01-3.492459654808E-09 0.000000000000E+00
     4.038100000000E+05
> EPH E34 FNAV
E34 2026 04 16 14 00 00-2.482919953763E-04-2.344791028008E-12 0.000000000000E+00
     2.500000000000E+01-1.596562500000E+02 2.498675508436E-09 4.982773659952E-01
    -7.612630724907E-06 1.202060375363E-04 1.114606857300E-05 5.440607709885E+03
     3.960000000000E+05-3.539025783539E-08 2.499782670439E+00 3.725290298462E-08
     9.979796668646E-01 1.200625000000E+02 1.456651548252E+00-5.309506876559E-09
    -5.643092200298E-10 2.580000000000E+02 2.414000000000E+03
     3.120000000000E+00 0.000000000000E+00 2.793967723846E-09 0.000000000000E+00
     4.023900000000E+05
> ION E13 IFNV
    2026 04 16 16 09 27 7.125000000000E+01 1.601562500000E-01 1.470947265625E-02
     0.000000000000E+00
> EPH E13 INAV
E13 2026 04 16 16 20 00-5.265121581033E-05-8.242295734817E-13 0.000000000000E+00
     3.900000000000E+01-1.698437500000E+02 2.651181860938E-09 1.485971599630E+00
    -7.823109626770E-06 3.121520858258E-04 1.076608896255E-05 5.440609525681E+03
     4.044000000000E+05 3.539025783539E-08 2.501661159657E+00 1.359730958939E-07
     9.981689596866E-01 1.272187500000E+02-7.452079533596E-02-5.420225774160E-09
    -5.121641908372E-10 5.170000000000E+02 2.414000000000E+03
     3.600000000000E+00 0.000000000000E+00 3.026798367500E-09 2.793967723846E-09
     4.050650000000E+05
> EPH E08 INAV
E08 2026 04 16 16 20 00-1.285430626012E-04-6.977529665164E-12 0.000000000000E+00
     3.900000000000E+01 1.165625000000E+01 3.531575675731E-09 2.880034958388E-01
     5.681067705154E-07 4.281576257199E-04 2.184882760048E-06 5.440602378845E+03
     4.044000000000E+05 2.607703208923E-08-1.696623645814E+00 1.862645149231E-08
     9.730824659563E-01 2.984687500000E+02-1.518134371476E-01-5.983106363253E-09
     4.143029716675E-11 5.170000000000E+02 2.414000000000E+03
     3.120000000000E+00 0.000000000000E+00-6.519258022308E-09-7.217749953270E-09
     4.050650000000E+05
> EPH E15 INAV
E15 2026 04 16 16 20 00-2.510624472052E-04-2.899014361901E-12 0.000000000000E+00
     3.900000000000E+01-1.682187500000E+02 2.555463588173E-09 2.482242734711E+00
    -7.951632142067E-06 3.199338680133E-04 1.055002212524E-05 5.440610021591E+03
     4.044000000000E+05-4.656612873077E-08 2.501571798769E+00 4.470348358154E-08
     9.981249858320E-01 1.317812500000E+02-2.685673710462E-01-5.323436028193E-09
    -5.014494588113E-10 5.170000000000E+02 2.414000000000E+03
     3.120000000000E+00 0.000000000000E+00 3.026798367500E-09 3.026798367500E-09
     4.050650000000E+05
> EPH E21 INAV
E21 2026 04 16 16 20 00-7.356335991062E-04-2.785327524180E-12 0.000000000000E+00
     3.900000000000E+01 1.989687500000E+02 2.891549016051E-09 9.676898763504E-01
     9.290874004364E-06 9.134109131992E-05 1.175701618195E-05 5.440621744156E+03
     4.044000000000E+05 6.891787052155E-08 4.021952311258E-01 4.470348358154E-08
     9.620992222658E-01 8.990625000000E+01 1.773283973470E+00-5.575946546269E-09
     5.278791311418E-10 5.170000000000E+02 2.414000000000E+03
     3.600000000000E+00 0.000000000000E+00 2.328306436539E-10 0.000000000000E+00
     4.050650000000E+05
> EPH E07 INAV
E07 2026 04 16 16 20 00-5.762808723375E-05-2.572164703452E-12 0.000000000000E+00
     3.900000000000E+01 6.562500000000E+00 3.706225807753E-09-1.643038156163E-01
     2.123415470123E-07 4.704305902123E-04 2.300366759300E-06 5.440599624634E+03
     4.044000000000E+05 1.862645149231E-08-1.699378589734E+00-1.676380634308E-08
     9.673624504147E-01 2.931875000000E+02-4.816887527271E-01-6.069895692662E-09
    -3.928735076157E-12 5.170000000000E+02 2.414000000000E+03
     3.120000000000E+00 0.000000000000E+00 2.328306436539E-09 2.793967723846E-09
     4.050650000000E+05
> EPH E27 INAV
E27 2026 04 16 16 20 00-9.629396372475E-04-1.050182163453E-11 0.000000000000E+00
     3.900000000000E+01 1.911875000000E+02 2.935836575092E-09 3.077959823553E+00
     8.754432201385E-06 1.511476002634E-04 1.141615211964E-05 5.440619674683E+03
     4.044000000000E+05-9.313225746155E-09 4.021571820894E-01 8.940696716309E-08
     9.620711986071E-01 9.946875000000E+01 4.622417072511E-01-5.546659612065E-09
     4.843058875699E-10 5.170000000000E+02 2.414000000000E+03
     3.600000000000E+00 0.000000000000E+00 0.000000000000E+00-2.328306436539E-10
     4.050650000000E+05
> EPH E23 INAV
E23 2026 04 16 16 20 00-3.185862442479E-05-1.293187779083E-12 0.000000000000E+00
     3.900000000000E+01 2.004375000000E+02 2.919050161585E-09-3.463793180546E-01
     9.300187230110E-06 2.668938832358E-04 1.274421811104E-05 5.440619396210E+03
     4.044000000000E+05 5.215406417847E-08 3.988659806777E-01-2.421438694000E-08
     9.640251348992E-01 6.234375000000E+01 2.297578252019E+00-5.562017394636E-09
     5.321650239522E-10 5.170000000000E+02 2.414000000000E+03
     3.120000000000E+00 0.000000000000E+00-4.656612873077E-10 6.984919309616E-10
     4.050650000000E+05
> STO E13 IFNV
    2026 04 16 00 00 00 GAUT                                  UTCGAL            
     4.050670000000E+05 0.000000000000E+00 0.000000000000E+00 0.000000000000E+00
> STO E13 IFNV
    2026 04 17 00 00 00 GAGP                                                    
     4.050900000000E+05 2.735760062933E-09-1.554312234475E-14 0.000000000000E+00
> EPH E13 FNAV
E13 2026 04 16 16 20 00-5.265191430226E-05-8.242295734817E-13 0.000000000000E+00
     3.900000000000E+01-1.698437500000E+02 2.651181860938E-09 1.485971599630E+00
    -7.823109626770E-06 3.121520858258E-04 1.076608896255E-05 5.440609525681E+03
     4.044000000000E+05 3.539025783539E-08 2.501661159657E+00 1.359730958939E-07
     9.981689596866E-01 1.272187500000E+02-7.452079533596E-02-5.420225774160E-09
    -5.121641908372E-10 2.580000000000E+02 2.414000000000E+03
     3.600000000000E+00 0.000000000000E+00 3.026798367500E-09 0.000000000000E+00
     4.051400000000E+05
> EPH E15 FNAV
E15 2026 04 16 16 20 00-2.510634949431E-04-2.899014361901E-12 0.000000000000E+00
     3.900000000000E+01-1.682187500000E+02 2.555463588173E-09 2.482242734711E+00
    -7.951632142067E-06 3.199338680133E-04 1.055002212524E-05 5.440610021591E+03
     4.044000000000E+05-4.656612873077E-08 2.501571798769E+00 4.470348358154E-08
     9.981249858320E-01 1.317812500000E+02-2.685673710462E-01-5.323436028193E-09
    -5.014494588113E-10 2.580000000000E+02 2.414000000000E+03
     3.120000000000E+00 0.000000000000E+00 3.026798367500E-09 0.000000000000E+00
     4.051400000000E+05
> EPH E08 FNAV
E08 2026 04 16 16 20 00-1.285431790166E-04-6.977529665164E-12 0.000000000000E+00
     3.900000000000E+01 1.165625000000E+01 3.531575675731E-09 2.880034958388E-01
     5.681067705154E-07 4.281576257199E-04 2.184882760048E-06 5.440602378845E+03
     4.044000000000E+05 2.607703208923E-08-1.696623645814E+00 1.862645149231E-08
     9.730824659563E-01 2.984687500000E+02-1.518134371476E-01-5.983106363253E-09
     4.143029716675E-11 2.580000000000E+02 2.414000000000E+03
     3.120000000000E+00 0.000000000000E+00-6.519258022308E-09 0.000000000000E+00
     4.051400000000E+05
> EPH E21 FNAV
E21 2026 04 16 16 20 00-7.356343558058E-04-2.799538378895E-12 0.000000000000E+00
     3.900000000000E+01 1.989687500000E+02 2.891549016051E-09 9.676898763504E-01
     9.290874004364E-06 9.134109131992E-05 1.175701618195E-05 5.440621744156E+03
     4.044000000000E+05 6.891787052155E-08 4.021952311258E-01 4.470348358154E-08
     9.620992222658E-01 8.990625000000E+01 1.773283973470E+00-5.575946546269E-09
     5.278791311418E-10 2.580000000000E+02 2.414000000000E+03
     3.600000000000E+00 0.000000000000E+00 2.328306436539E-10 0.000000000000E+00
     4.051400000000E+05
> EPH E23 FNAV
E23 2026 04 16 16 20 00-3.186054527760E-05-1.307398633799E-12 0.000000000000E+00
     3.900000000000E+01 2.004375000000E+02 2.919050161585E-09-3.463793180546E-01
     9.300187230110E-06 2.668938832358E-04 1.274421811104E-05 5.440619396210E+03
     4.044000000000E+05 5.215406417847E-08 3.988659806777E-01-2.421438694000E-08
     9.640251348992E-01 6.234375000000E+01 2.297578252019E+00-5.562017394636E-09
     5.321650239522E-10 2.580000000000E+02 2.414000000000E+03
     3.120000000000E+00 0.000000000000E+00-4.656612873077E-10 0.000000000000E+00
     4.051400000000E+05
> EPH E07 FNAV
E07 2026 04 16 16 20 00-5.762930959463E-05-2.572164703452E-12 0.000000000000E+00
     3.900000000000E+01 6.562500000000E+00 3.706225807753E-09-1.643038156163E-01
     2.123415470123E-07 4.704305902123E-04 2.300366759300E-06 5.440599624634E+03
     4.044000000000E+05 1.862645149231E-08-1.699378589734E+00-1.676380634308E-08
     9.673624504147E-01 2.931875000000E+02-4.816887527271E-01-6.069895692662E-09
    -3.928735076157E-12 2.580000000000E+02 2.414000000000E+03
     3.120000000000E+00 0.000000000000E+00 2.328306436539E-09 0.000000000000E+00
     4.051400000000E+05
> EPH E27 FNAV
E27 2026 04 16 16 20 00-9.629403357394E-04-1.050182163453E-11 0.000000000000E+00
     3.900000000000E+01 1.911875000000E+02 2.935836575092E-09 3.077959823553E+00
     8.754432201385E-06 1.511476002634E-04 1.141615211964E-05 5.440619674683E+03
     4.044000000000E+05-9.313225746155E-09 4.021571820894E-01 8.940696716309E-08
     9.620711986071E-01 9.946875000000E+01 4.622417072511E-01-5.546659612065E-09
     4.843058875699E-10 2.580000000000E+02 2.414000000000E+03
     3.600000000000E+00 0.000000000000E+00 0.000000000000E+00 0.000000000000E+00
     4.051400000000E+05
> EPH E13 INAV
E13 2026 04 16 16 30 00-5.265168147162E-05-8.242295734817E-13 0.000000000000E+00
     4.000000000000E+01-1.675000000000E+02 2.659396488824E-09 1.561166557356E+00
    -7.739290595055E-06 3.123390488327E-04 1.072697341442E-05 5.440608907700E+03
     4.050000000000E+05 1.303851604462E-08 2.501657792020E+00 1.341104507446E-07
     9.981686217525E-01 1.283125000000E+02-7.533073993055E-02-5.412011146273E-09
    -5.010923010771E-10 5.170000000000E+02 2.414000000000E+03
     3.600000000000E+00 0.000000000000E+00 3.026798367500E-09 2.793967723846E-09
     4.056650000000E+05
> EPH E08 INAV
E08 2026 04 16 16 30 00-1.285473117605E-04-6.977529665164E-12 0.000000000000E+00
     4.000000000000E+01 1.281250000000E+01 3.528004098389E-09 3.621052851043E-01
     6.258487701416E-07 4.282363224775E-04 2.192333340645E-06 5.440602664948E+03
     4.050000000000E+05 2.235174179077E-08-1.696627234352E+00 2.235174179077E-08
     9.730825113067E-01 2.983125000000E+02-1.515290546505E-01-5.980963416848E-09
     3.964450849577E-11 5.170000000000E+02 2.414000000000E+03
     3.120000000000E+00 0.000000000000E+00-6.519258022308E-09-7.217749953270E-09
     4.056650000000E+05
> EPH E15 INAV
E15 2026 04 16 16 30 00-2.510641934350E-04-2.884803507186E-12 0.000000000000E+00
     4.000000000000E+01-1.697187500000E+02 2.546177487084E-09 2.556687279830E+00
    -8.020550012589E-06 3.195165190846E-04 1.040659844875E-05 5.440610845566E+03
     4.050000000000E+05-4.656612873077E-08 2.501568608145E+00 4.470348358154E-08
     9.981246830080E-01 1.348437500000E+02-2.686264217344E-01-5.323793185927E-09
    -5.018066165455E-10 5.170000000000E+02 2.414000000000E+03
     3.120000000000E+00 0.000000000000E+00 3.026798367500E-09 3.026798367500E-09
     4.056650000000E+05
> EPH E21 INAV
E21 2026 04 16 16 30 00-7.356352871284E-04-2.785327524180E-12 0.000000000000E+00
     4.000000000000E+01 2.007187500000E+02 2.876905548949E-09 1.038259372379E+00
     9.356066584587E-06 9.129964746535E-05 1.167133450508E-05 5.440622434616E+03
     4.050000000000E+05 7.078051567078E-08 4.021918810433E-01 4.842877388000E-08
     9.620995514224E-01 9.221875000000E+01 1.777099677826E+00-5.574160757598E-09
     5.275219734076E-10 5.170000000000E+02 2.414000000000E+03
     3.600000000000E+00 0.000000000000E+00 2.328306436539E-10 0.000000000000E+00
     4.056650000000E+05
> EPH E07 INAV
E07 2026 04 16 16 30 00-5.762942600995E-05-2.557953848736E-12 0.000000000000E+00
     4.000000000000E+01 6.593750000000E+00 3.707297280955E-09-8.997680864952E-02
     2.160668373108E-07 4.704768070951E-04 2.268701791763E-06 5.440599733353E+03
     4.050000000000E+05 1.862645149231E-08-1.699382235326E+00-1.676380634308E-08
     9.673624504147E-01 2.936250000000E+02-4.816294518799E-01-6.069181377194E-09
    -3.928735076157E-12 5.170000000000E+02 2.414000000000E+03
     3.120000000000E+00 0.000000000000E+00 2.328306436539E-09 2.793967723846E-09
     4.056650000000E+05
> EPH E23 INAV
E23 2026 04 16 16 30 00-3.185949753970E-05-1.293187779083E-12 0.000000000000E+00
     4.000000000000E+01 2.010937500000E+02 2.920121634787E-09-2.718183553770E-01
     9.348616003990E-06 2.667922526598E-04 1.278519630432E-05 5.440619173050E+03
     4.050000000000E+05 5.401670932770E-08 3.988626847232E-01-1.490116119385E-08
     9.640254450379E-01 6.171875000000E+01 2.297402181051E+00-5.566660445180E-09
     5.296649198128E-10 5.170000000000E+02 2.414000000000E+03
     3.120000000000E+00 0.000000000000E+00-4.656612873077E-10 6.984919309616E-10
     4.056650000000E+05
> EPH E27 INAV
E27 2026 04 16 16 30 00-9.629458654672E-04-1.050182163453E-11 0.000000000000E+00
     4.000000000000E+01 1.891562500000E+02 2.937265206029E-09-3.132107559435E+00
     8.646398782730E-06 1.514009200037E-04 1.133419573307E-05 5.440619045258E+03
     4.050000000000E+05-2.421438694000E-08 4.021538817462E-01 8.754432201385E-08
     9.620715438558E-01 1.010000000000E+02 4.635085167731E-01-5.542016561521E-09
     4.764484174176E-10 5.170000000000E+02 2.414000000000E+03
     3.600000000000E+00 0.000000000000E+00 0.000000000000E+00-2.328306436539E-10
     4.056840000000E+05
> EPH E13 FNAV
E13 2026 04 16 16 30 00-5.265232175589E-05-8.242295734817E-13 0.000000000000E+00
     4.000000000000E+01-1.675000000000E+02 2.659396488824E-09 1.561166557356E+00
    -7.739290595055E-06 3.123390488327E-04 1.072697341442E-05 5.440608907700E+03
     4.050000000000E+05 1.303851604462E-08 2.501657792020E+00 1.341104507446E-07
     9.981686217525E-01 1.283125000000E+02-7.533073993055E-02-5.412011146273E-09
    -5.010923010771E-10 2.580000000000E+02 2.414000000000E+03
     3.600000000000E+00 0.000000000000E+00 3.026798367500E-09 0.000000000000E+00
     4.057400000000E+05
> EPH E08 FNAV
E08 2026 04 16 16 30 00-1.285474863835E-04-6.991740519879E-12 0.000000000000E+00
     4.000000000000E+01 1.281250000000E+01 3.528004098389E-09 3.621052851043E-01
     6.258487701416E-07 4.282363224775E-04 2.192333340645E-06 5.440602664948E+03
     4.050000000000E+05 2.235174179077E-08-1.696627234352E+00 2.235174179077E-08
     9.730825113067E-01 2.983125000000E+02-1.515290546505E-01-5.980963416848E-09
     3.964450849577E-11 2.580000000000E+02 2.414000000000E+03
     3.120000000000E+00 0.000000000000E+00-6.519258022308E-09 0.000000000000E+00
     4.057400000000E+05
> EPH E15 FNAV
E15 2026 04 16 16 30 00-2.510652411729E-04-2.884803507186E-12 0.000000000000E+00
     4.000000000000E+01-1.697187500000E+02 2.546177487084E-09 2.556687279830E+00
    -8.020550012589E-06 3.195165190846E-04 1.040659844875E-05 5.440610845566E+03
     4.050000000000E+05-4.656612873077E-08 2.501568608145E+00 4.470348358154E-08
     9.981246830080E-01 1.348437500000E+02-2.686264217344E-01-5.323793185927E-09
    -5.018066165455E-10 2.580000000000E+02 2.414000000000E+03
     3.120000000000E+00 0.000000000000E+00 3.026798367500E-09 0.000000000000E+00
     4.057400000000E+05
> EPH E21 FNAV
E21 2026 04 16 16 30 00-7.356359856203E-04-2.799538378895E-12 0.000000000000E+00
     4.000000000000E+01 2.007187500000E+02 2.876905548949E-09 1.038259372379E+00
     9.356066584587E-06 9.129964746535E-05 1.167133450508E-05 5.440622434616E+03
     4.050000000000E+05 7.078051567078E-08 4.021918810433E-01 4.842877388000E-08
     9.620995514224E-01 9.221875000000E+01 1.777099677826E+00-5.574160757598E-09
     5.275219734076E-10 2.580000000000E+02 2.414000000000E+03
     3.600000000000E+00 0.000000000000E+00 2.328306436539E-10 0.000000000000E+00
     4.057400000000E+05
> EPH E07 FNAV
E07 2026 04 16 16 30 00-5.763064837083E-05-2.557953848736E-12 0.000000000000E+00
     4.000000000000E+01 6.593750000000E+00 3.707297280955E-09-8.997680864952E-02
     2.160668373108E-07 4.704768070951E-04 2.268701791763E-06 5.440599733353E+03
     4.050000000000E+05 1.862645149231E-08-1.699382235326E+00-1.676380634308E-08
     9.673624504147E-01 2.936250000000E+02-4.816294518799E-01-6.069181377194E-09
    -3.928735076157E-12 2.580000000000E+02 2.414000000000E+03
     3.120000000000E+00 0.000000000000E+00 2.328306436539E-09 0.000000000000E+00
     4.057400000000E+05
> EPH E23 FNAV
E23 2026 04 16 16 30 00-3.186141839251E-05-1.307398633799E-12 0.000000000000E+00
     4.000000000000E+01 2.010937500000E+02 2.920121634787E-09-2.718183553770E-01
     9.348616003990E-06 2.667922526598E-04 1.278519630432E-05 5.440619173050E+03
     4.050000000000E+05 5.401670932770E-08 3.988626847232E-01-1.490116119385E-08
     9.640254450379E-01 6.171875000000E+01 2.297402181051E+00-5.566660445180E-09
     5.296649198128E-10 2.580000000000E+02 2.414000000000E+03
     3.120000000000E+00 0.000000000000E+00-4.656612873077E-10 0.000000000000E+00
     4.057400000000E+05
> EPH E27 FNAV
E27 2026 04 16 16 30 00-9.629466221668E-04-1.050182163453E-11 0.000000000000E+00
     4.000000000000E+01 1.891562500000E+02 2.937265206029E-09-3.132107559435E+00
     8.646398782730E-06 1.514009200037E-04 1.133419573307E-05 5.440619045258E+03
     4.050000000000E+05-2.421438694000E-08 4.021538817462E-01 8.754432201385E-08
     9.620715438558E-01 1.010000000000E+02 4.635085167731E-01-5.542016561521E-09
     4.764484174176E-10 2.580000000000E+02 2.414000000000E+03
     3.600000000000E+00 0.000000000000E+00 0.000000000000E+00 0.000000000000E+00
     4.057400000000E+05
> EPH S21 SBAS
S21 2026 04 16 16 30 40 0.000000000000E+00 0.000000000000E+00 4.050540000000E+05
     4.200468400000E+04 0.000000000000E+00 0.000000000000E+00 6.300000000000E+01
    -3.674932960000E+03 0.000000000000E+00 0.000000000000E+00 3.276700000000E+04
     0.000000000000E+00 0.000000000000E+00 0.000000000000E+00 2.500000000000E+02
> EPH S36 SBAS
S36 2026 04 16 16 30 40 0.000000000000E+00 0.000000000000E+00 4.050540000000E+05
     4.200368800000E+04 0.000000000000E+00 0.000000000000E+00 6.300000000000E+01
     3.674846960000E+03 0.000000000000E+00 0.000000000000E+00 3.276700000000E+04
     0.000000000000E+00 0.000000000000E+00 0.000000000000E+00 1.100000000000E+01
> EPH S23 SBAS
S23 2026 04 16 16 31 44 0.000000000000E+00 0.000000000000E+00 4.051050000000E+05
     3.866796400000E+04 0.000000000000E+00 0.000000000000E+00 6.300000000000E+01
     1.681330800000E+04 0.000000000000E+00 0.000000000000E+00 3.276700000000E+04
     0.000000000000E+00 0.000000000000E+00 0.000000000000E+00 7.900000000000E+01
> EPH S21 SBAS
S21 2026 04 16 16 33 20 0.000000000000E+00 0.000000000000E+00 4.052060000000E+05
     4.200468400000E+04 0.000000000000E+00 0.000000000000E+00 6.300000000000E+01
    -3.674932960000E+03 0.000000000000E+00 0.000000000000E+00 3.276700000000E+04
     0.000000000000E+00 0.000000000000E+00 0.000000000000E+00 2.510000000000E+02
> EPH S36 SBAS
S36 2026 04 16 16 33 20 0.000000000000E+00 0.000000000000E+00 4.052060000000E+05
     4.200368800000E+04 0.000000000000E+00 0.000000000000E+00 6.300000000000E+01
     3.674846960000E+03 0.000000000000E+00 0.000000000000E+00 3.276700000000E+04
     0.000000000000E+00 0.000000000000E+00 0.000000000000E+00 1.200000000000E+01
> EPH S23 SBAS
S23 2026 04 16 16 33 52 0.000000000000E+00 0.000000000000E+00 4.052320000000E+05
     3.866796400000E+04 0.000000000000E+00 0.000000000000E+00 6.300000000000E+01
     1.681330800000E+04 0.000000000000E+00 0.000000000000E+00 3.276700000000E+04
     0.000000000000E+00 0.000000000000E+00 0.000000000000E+00 8.000000000000E+01
> EPH S23 SBAS
S23 2026 04 16 16 35 44 0.000000000000E+00 0.000000000000E+00 4.053570000000E+05
     3.866796400000E+04 0.000000000000E+00 0.000000000000E+00 6.300000000000E+01
     1.681330800000E+04 0.000000000000E+00 0.000000000000E+00 3.276700000000E+04
     0.000000000000E+00 0.000000000000E+00 0.000000000000E+00 8.100000000000E+01
> EPH S21 SBAS
S21 2026 04 16 16 35 44 0.000000000000E+00 0.000000000000E+00 4.053580000000E+05
     4.200468400000E+04 0.000000000000E+00 0.000000000000E+00 6.300000000000E+01
    -3.674932960000E+03 0.000000000000E+00 0.000000000000E+00 3.276700000000E+04
     0.000000000000E+00 0.000000000000E+00 0.000000000000E+00 2.520000000000E+02
> EPH S36 SBAS
S36 2026 04 16 16 35 44 0.000000000000E+00 0.000000000000E+00 4.053580000000E+05
     4.200368800000E+04 0.000000000000E+00 0.000000000000E+00 6.300000000000E+01
     3.674846960000E+03 0.000000000000E+00 0.000000000000E+00 3.276700000000E+04
     0.000000000000E+00 0.000000000000E+00 0.000000000000E+00 1.300000000000E+01
> EPH S23 SBAS
S23 2026 04 16 16 37 52 0.000000000000E+00 0.000000000000E+00 4.054830000000E+05
     3.866796400000E+04 0.000000000000E+00 0.000000000000E+00 6.300000000000E+01
     1.681330800000E+04 0.000000000000E+00 0.000000000000E+00 3.276700000000E+04
     0.000000000000E+00 0.000000000000E+00 0.000000000000E+00 8.200000000000E+01
> EPH S21 SBAS
S21 2026 04 16 16 38 24 0.000000000000E+00 0.000000000000E+00 4.055140000000E+05
     4.200468400000E+04 0.000000000000E+00 0.000000000000E+00 6.300000000000E+01
    -3.674932960000E+03 0.000000000000E+00 0.000000000000E+00 3.276700000000E+04
     0.000000000000E+00 0.000000000000E+00 0.000000000000E+00 2.530000000000E+02
> EPH S36 SBAS
S36 2026 04 16 16 38 24 0.000000000000E+00 0.000000000000E+00 4.055140000000E+05
     4.200368800000E+04 0.000000000000E+00 0.000000000000E+00 6.300000000000E+01
     3.674846960000E+03 0.000000000000E+00 0.000000000000E+00 3.276700000000E+04
     0.000000000000E+00 0.000000000000E+00 0.000000000000E+00 1.400000000000E+01
> EPH S23 SBAS
S23 2026 04 16 16 40 00 0.000000000000E+00 0.000000000000E+00 4.056100000000E+05
     3.866796400000E+04 0.000000000000E+00 0.000000000000E+00 6.300000000000E+01
     1.681330800000E+04 0.000000000000E+00 0.000000000000E+00 3.276700000000E+04
     0.000000000000E+00 0.000000000000E+00 0.000000000000E+00 8.300000000000E+01
> EPH S21 SBAS
S21 2026 04 16 16 41 04 0.000000000000E+00 0.000000000000E+00 4.056670000000E+05
     4.200468400000E+04 0.000000000000E+00 0.000000000000E+00 6.300000000000E+01
    -3.674932960000E+03 0.000000000000E+00 0.000000000000E+00 3.276700000000E+04
     0.000000000000E+00 0.000000000000E+00 0.000000000000E+00 2.540000000000E+02
> EPH S36 SBAS
S36 2026 04 16 16 41 04 0.000000000000E+00 0.000000000000E+00 4.056670000000E+05
     4.200368800000E+04 0.000000000000E+00 0.000000000000E+00 6.300000000000E+01
     3.674846960000E+03 0.000000000000E+00 0.000000000000E+00 3.276700000000E+04
     0.000000000000E+00 0.000000000000E+00 0.000000000000E+00 1.500000000000E+01
> EPH S23 SBAS
S23 2026 04 16 16 42 08 0.000000000000E+00 0.000000000000E+00 4.057330000000E+05
     3.866796400000E+04 0.000000000000E+00 0.000000000000E+00 6.300000000000E+01
     1.681330800000E+04 0.000000000000E+00 0.000000000000E+00 3.276700000000E+04
     0.000000000000E+00 0.000000000000E+00 0.000000000000E+00 8.400000000000E+01
> EPH S21 SBAS
S21 2026 04 16 16 43 28 0.000000000000E+00 0.000000000000E+00 4.058230000000E+05
     4.200468400000E+04 0.000000000000E+00 0.000000000000E+00 6.300000000000E+01
    -3.674932960000E+03 0.000000000000E+00 0.000000000000E+00 3.276700000000E+04
     0.000000000000E+00 0.000000000000E+00 0.000000000000E+00 2.550000000000E+02
> EPH S36 SBAS
S36 2026 04 16 16 43 28 0.000000000000E+00 0.000000000000E+00 4.058230000000E+05
     4.200368800000E+04 0.000000000000E+00 0.000000000000E+00 6.300000000000E+01
     3.674846960000E+03 0.000000000000E+00 0.000000000000E+00 3.276700000000E+04
     0.000000000000E+00 0.000000000000E+00 0.000000000000E+00 1.600000000000E+01
> EPH S23 SBAS
S23 2026 04 16 16 44 16 0.000000000000E+00 0.000000000000E+00 4.058600000000E+05
     3.866796400000E+04 0.000000000000E+00 0.000000000000E+00 6.300000000000E+01
     1.681330800000E+04 0.000000000000E+00 0.000000000000E+00 3.276700000000E+04
     0.000000000000E+00 0.000000000000E+00 0.000000000000E+00 8.500000000000E+01
> EPH C05 D2
C05 2026 04 16 16 00 00-3.865723265335E-04 1.827960005585E-11 0.000000000000E+00
     1.000000000000E+00-2.174062500000E+02-1.168655822063E-08 2.948796849431E+00
    -6.974674761295E-06 1.235931180418E-03-2.968823537230E-05 6.493450496674E+03
     4.032000000000E+05 2.458691596985E-07 1.591307990422E+00-4.624016582966E-07
     3.345185136960E-02 9.006093750000E+02 7.548288545887E-01 1.266909914740E-08
     2.732256666600E-10                    1.058000000000E+03
     2.000000000000E+00 0.000000000000E+00-2.000000000000E-10-9.300000000000E-09
     4.039476000000E+05 1.000000000000E+00
> EPH C11 D1
C11 2026 04 16 16 00 00 7.074908353388E-06 1.440980668121E-11 0.000000000000E+00
     1.000000000000E+00-9.265625000000E+01 4.148387082688E-09-2.206604349128E+00
    -4.540663212538E-06 1.771752256900E-03 2.355780452490E-06 5.282637277603E+03
     4.032000000000E+05-6.379559636116E-08 1.863402380886E+00 2.887099981308E-08
     9.736487776369E-01 3.188906250000E+02-1.411596034024E+00-7.201728552330E-09
    -3.446572134992E-10                    1.058000000000E+03
     2.000000000000E+00 0.000000000000E+00 3.800000000000E-09 1.900000000000E-09
     4.037880000000E+05 1.000000000000E+00
> EPH C14 D1
C14 2026 04 16 16 00 00-6.336668739095E-04-4.198152936397E-11 0.000000000000E+00
     2.000000000000E+01 7.707812500000E+01 3.533361464402E-09 6.439930094881E-01
     3.784894943237E-06 1.422369736247E-03 8.048489689827E-06 5.282628084183E+03
     4.032000000000E+05 5.913898348808E-08-2.361284110927E+00 9.592622518539E-08
     9.858936960069E-01 2.097500000000E+02-7.123528174970E-02-6.708850879139E-09
     6.250260348431E-10                    1.058000000000E+03
     2.000000000000E+00 0.000000000000E+00 6.200000000000E-09 2.100000000000E-09
     4.037880000000E+05 2.000000000000E+01
> EPH C21 D1
C21 2026 04 16 16 00 00-8.598348358646E-04 2.617461802856E-12 0.000000000000E+00
     1.000000000000E+00 7.667187500000E+01 3.385855320179E-09 2.083978368853E+00
     3.833789378405E-06 9.149662218988E-04 8.673407137394E-06 5.282630058289E+03
     4.032000000000E+05-5.774199962616E-08-2.356876046170E+00-2.002343535423E-08
     9.877462754828E-01 2.026406250000E+02-3.430135912072E-01-6.615632710514E-09
     5.375223899651E-10                    1.058000000000E+03
     2.000000000000E+00 0.000000000000E+00 1.110000000000E-08 1.110000000000E-08
     4.037880000000E+05 1.000000000000E+00
> EPH C27 D1
C27 2026 04 16 16 00 00 6.208701524884E-04 4.789058039023E-12 0.000000000000E+00
     1.000000000000E+00-8.970312500000E+01 4.703053043894E-09-6.759749924546E-01
    -4.347413778305E-06 7.443174254149E-04 8.023343980312E-07 5.282651876450E+03
     4.032000000000E+05-4.656612873077E-09 1.819930618844E+00-6.053596735001E-09
     9.487301771628E-01 3.377343750000E+02 1.455449281213E+00-7.639246776720E-09
    -3.732298322349E-10                    1.058000000000E+03
     2.000000000000E+00 0.000000000000E+00-4.300000000000E-09-4.300000000000E-09
     4.044780000000E+05 1.000000000000E+00
> EPH C28 D1
C28 2026 04 16 16 00 00 5.071785999462E-04 4.196643033083E-12 0.000000000000E+00
     1.000000000000E+00-9.050000000000E+01 4.721268088338E-09 1.367728896427E+00
    -4.290137439966E-06 6.859656423330E-05 1.123175024986E-06 5.282625663757E+03
     4.032000000000E+05 5.820766091347E-08 1.819618111747E+00 4.563480615616E-08
     9.486044364281E-01 3.313125000000E+02 4.531329502348E-02-7.651747297417E-09
    -3.660866775510E-10                    1.058000000000E+03
     2.000000000000E+00 0.000000000000E+00-4.300000000000E-09-4.300000000000E-09
     4.037880000000E+05 1.000000000000E+00
> EPH C33 D1
C33 2026 04 16 16 00 00-9.204021189362E-04 2.209787908214E-12 0.000000000000E+00
     1.000000000000E+00 7.500000000000E+01 3.542647565491E-09 1.825643496808E-01
     3.622844815254E-06 6.517586298287E-04 8.186325430870E-06 5.282625717163E+03
     4.032000000000E+05 6.053596735001E-08-2.365551205971E+00 3.213062882423E-08
     9.873310612960E-01 2.072343750000E+02-3.876591007004E-03-6.733137605065E-09
     6.207401420328E-10                    1.058000000000E+03
     2.000000000000E+00 0.000000000000E+00-4.510000000000E-08-4.510000000000E-08
     4.037880000000E+05 1.000000000000E+00
> EPH C34 D1
C34 2026 04 16 16 00 00 9.265424450859E-04 7.932321466342E-12 0.000000000000E+00
     1.000000000000E+00-7.751562500000E+01 4.700552939755E-09 2.063750825860E+00
    -3.851018846035E-06 7.040598429739E-04 1.025386154652E-06 5.282612501144E+03
     4.032000000000E+05-5.494803190231E-08 1.779460739831E+00-2.747401595116E-08
     9.445183994397E-01 3.316562500000E+02 1.057313441486E+00-7.527099248182E-09
    -2.925121843066E-10                    1.058000000000E+03
     2.000000000000E+00 0.000000000000E+00-6.200000000000E-09-6.200000000000E-09
     4.037880000000E+05 1.000000000000E+00
> EPH C37 D1
C37 2026 04 16 15 00 00-9.674046887085E-04-1.010125316725E-11 0.000000000000E+00
     1.000000000000E+00-1.093750000000E+00 3.776585881389E-09 2.624121448368E+00
    -2.188608050346E-08 5.781456129625E-04 1.475913450122E-05 5.282680732727E+03
     3.996000000000E+05-1.862645149231E-09-2.759836503411E-01-3.259629011154E-09
     9.458799563140E-01 5.007812500000E+01-2.640380523247E-01-6.749924018572E-09
    -2.982267080537E-10                    1.058000000000E+03
     2.000000000000E+00 0.000000000000E+00-1.680000000000E-08-1.680000000000E-08
     4.024080000000E+05 1.000000000000E+00
> EPH C41 D1
C41 2026 04 16 16 00 00-9.394723456353E-04-2.309263891220E-13 0.000000000000E+00
     1.000000000000E+00 7.125000000000E+01 3.550147877909E-09 5.089823319457E-01
     3.376975655556E-06 1.793632633053E-03 8.731614798307E-06 5.282621444702E+03
     4.032000000000E+05 7.124617695808E-08-2.363104920211E+00-6.053596735001E-09
     9.861493087570E-01 1.986875000000E+02-1.074928656053E+00-6.722422873039E-09
     5.746667943215E-10                    1.058000000000E+03
     2.000000000000E+00 0.000000000000E+00-2.400000000000E-08-2.400000000000E-08
     4.042380000000E+05 1.000000000000E+00
> EPH C42 D1
C42 2026 04 16 16 00 00-8.952888892964E-04 1.389111048411E-12 0.000000000000E+00
     1.000000000000E+00 7.895312500000E+01 3.471573176386E-09 1.827632393917E+00
     3.912486135960E-06 1.587764360011E-03 8.096918463707E-06 5.282623800278E+03
     4.032000000000E+05-2.514570951462E-08-2.362503707694E+00 1.052394509315E-07
     9.861767794327E-01 2.098125000000E+02-8.297041764179E-01-6.634204912692E-09
     5.968105738417E-10                    1.058000000000E+03
     2.000000000000E+00 0.000000000000E+00-3.270000000000E-08-3.270000000000E-08
     4.037880000000E+05 1.000000000000E+00
> EPH C43 D1
C43 2026 04 16 16 00 00 1.363279297948E-04 8.446576771348E-13 0.000000000000E+00
     1.000000000000E+00-7.934375000000E+01 4.873774440840E-09 1.307178639592E+00
    -3.854744136333E-06 6.887171184644E-04 9.383074939251E-07 5.282654903412E+03
     4.032000000000E+05-1.019798219204E-07 1.776167428891E+00 5.075708031654E-08
     9.414391148780E-01 3.325937500000E+02 9.739607112702E-01-7.669605184127E-09
    -2.592965150264E-10                    1.058000000000E+03
     2.000000000000E+00 0.000000000000E+00-3.300000000000E-09-3.300000000000E-09
     4.037880000000E+05 1.000000000000E+00
> EPH C49 D1
C49 2026 04 16 16 00 00-9.296060306951E-04 4.725997371224E-12 0.000000000000E+00
     1.000000000000E+00-9.129687500000E+01 4.672694636487E-09 8.160837829710E-01
    -4.362780600786E-06 4.339721053839E-04 1.397915184498E-06 5.282633983612E+03
     4.032000000000E+05-1.443549990654E-08 1.818239851274E+00 1.080334186554E-07
     9.511883052452E-01 3.282031250000E+02 1.046239700220E+00-7.607459738377E-09
    -3.289422731946E-10                    1.058000000000E+03
     2.000000000000E+00 0.000000000000E+00 1.400000000000E-09 1.400000000000E-09
     4.037880000000E+05 1.000000000000E+00
> EPH C50 D1
C50 2026 04 16 16 00 00-3.713783808053E-04 7.631228982063E-12 0.000000000000E+00
     1.000000000000E+00 8.253125000000E+01 3.696225391195E-09 1.614080994781E+00
     4.121102392673E-06 3.763220738620E-04 8.249189704657E-06 5.282639072418E+03
     4.032000000000E+05-8.707866072655E-08-2.370886436022E+00 3.213062882423E-08
     9.720733948044E-01 2.015625000000E+02-2.381076494308E-01-6.764924643408E-09
     5.675236396376E-10                    1.058000000000E+03
     2.000000000000E+00 0.000000000000E+00 3.160000000000E-08 3.160000000000E-08
     4.037880000000E+05 1.000000000000E+00
> ION C21 D1D2
    2026 04 16 16 28 20 2.514570951462E-08 1.341104507446E-07-1.192092895508E-06
     1.847743988037E-06 1.454080000000E+05-5.734400000000E+05 3.473408000000E+06
    -2.686976000000E+06 0.000000000000E+00
> ION C14 D1D2
    2026 04 16 16 30 50 2.328306436539E-08 1.788139343262E-07-1.430511474609E-06
     2.145767211914E-06 1.392640000000E+05-5.406720000000E+05 3.473408000000E+06
    -2.686976000000E+06 0.000000000000E+00
> EPH C49 CNV2
C49 2026 04 16 16 00 00-9.296060306951E-04 4.725997371224E-12 0.000000000000E+00
    -3.151893615723E-03-8.916015625000E+01 4.641443334745E-09 8.173803972544E-01
    -4.298053681850E-06 4.349710652605E-04 1.518055796623E-06 5.282634512677E+03
     4.032000000000E+05-8.195638656616E-08 1.818239574051E+00 9.965151548386E-08
     9.511883125598E-01 3.243554687500E+02 1.044941138061E+00-7.580137171711E-09
    -2.935836575092E-10 3.197939429112E-14 3.000000000000E+00 4.050000000000E+05
     0.000000000000E+00-2.000000000000E+00 3.000000000000E+00 3.000000000000E+00
                       -2.619344741106E-09 1.164153218269E-09-1.327134668827E-08
     0.000000000000E+00 0.000000000000E+00 0.000000000000E+00 0.000000000000E+00
     4.050690000000E+05                                       0.000000000000E+00
> EPH C43 CNV2
C43 2026 04 16 16 00 00 1.363278715871E-04 8.446576771348E-13 0.000000000000E+00
    -1.733303070068E-03-7.963671875000E+01 4.848951978313E-09 1.307289739442E+00
    -3.867782652378E-06 6.893399404362E-04 1.034699380398E-06 5.282655073446E+03
     4.032000000000E+05-1.136213541031E-07 1.776167198482E+00-5.587935447693E-09
     9.414392187452E-01 3.302460937500E+02 9.738485961544E-01-7.632996516372E-09
    -2.396528396456E-10 1.604419509084E-14 3.000000000000E+00 4.050000000000E+05
     0.000000000000E+00-2.000000000000E+00 3.000000000000E+00 3.000000000000E+00
                       -2.619344741106E-09-9.313225746155E-10-4.714820533991E-09
     1.500000000000E+01 0.000000000000E+00 0.000000000000E+00 0.000000000000E+00
     4.050690000000E+05                                       0.000000000000E+00
> EPH C28 CNV2
C28 2026 04 16 16 00 00 5.071785417385E-04 4.196643033083E-12 0.000000000000E+00
     1.984596252441E-03-9.312109375000E+01 4.713053460452E-09 1.367030978442E+00
    -4.488043487072E-06 6.788526661694E-05 1.117587089539E-06 5.282625472695E+03
     4.032000000000E+05 3.818422555923E-08 1.819617917179E+00 9.965151548386E-08
     9.486043757170E-01 3.311796875000E+02 4.601255377327E-02-7.646568510271E-09
    -3.307280618656E-10-1.259992494906E-14 3.000000000000E+00 4.050000000000E+05
     0.000000000000E+00-2.000000000000E+00 3.000000000000E+00 3.000000000000E+00
                       -2.619344741106E-09-2.561137080193E-09-1.012813299894E-08
     0.000000000000E+00 0.000000000000E+00 0.000000000000E+00 0.000000000000E+00
     4.050690000000E+05                                       0.000000000000E+00
> EPH C33 CNV2
C33 2026 04 16 16 00 00-9.204020607285E-04 2.209787908214E-12 0.000000000000E+00
     1.314640045166E-03 7.626171875000E+01 3.527468361788E-09 1.818915222034E-01
     3.733672201633E-06 6.515940767713E-04 8.293427526951E-06 5.282625564202E+03
     4.032000000000E+05 6.612390279770E-08-2.365551181102E+00 5.960464477539E-08
     9.873311585801E-01 2.061093750000E+02-3.202994766160E-03-6.714743981753E-09
     6.128826718805E-10-6.844941927342E-15 3.000000000000E+00 4.050000000000E+05
     0.000000000000E+00-2.000000000000E+00 3.000000000000E+00 3.000000000000E+00
                       -2.619344741106E-09-4.260800778866E-08 3.364402800798E-08
     1.500000000000E+01 0.000000000000E+00 0.000000000000E+00 0.000000000000E+00
     4.050690000000E+05                                       0.000000000000E+00
> EPH C42 CNV2
C42 2026 04 16 16 00 00-8.952889475040E-04 1.389111048411E-12 0.000000000000E+00
     5.479812622070E-03 7.289843750000E+01 3.473180386190E-09 1.828252800650E+00
     3.568828105927E-06 1.586038270034E-03 8.355826139450E-06 5.282622808632E+03
     4.032000000000E+05-6.426125764847E-08-2.362503573105E+00 7.543712854385E-08
     9.861768620876E-01 2.054218750000E+02-8.303211972278E-01-6.623490180666E-09
     5.678807973718E-10-4.305337677229E-14 3.000000000000E+00 4.050000000000E+05
     0.000000000000E+00-2.000000000000E+00 3.000000000000E+00 3.000000000000E+00
                       -2.735760062933E-09-2.718297764659E-08-1.222360879183E-09
     3.000000000000E+00 0.000000000000E+00 0.000000000000E+00 0.000000000000E+00
     4.050690000000E+05                                       0.000000000000E+00
> EPH C50 CNV2
C50 2026 04 16 16 00 00-3.713784390129E-04 7.631228982063E-12 0.000000000000E+00
     9.283065795898E-03 7.002343750000E+01 3.708011596424E-09 1.616504186916E+00
     3.414228558540E-06 3.730937605724E-04 8.203089237213E-06 5.282637593045E+03
     4.032000000000E+05-8.009374141693E-08-2.370886296314E+00-8.381903171539E-09
     9.720734394234E-01 2.024140625000E+02-2.405250250042E-01-6.766531853212E-09
     5.416297039084E-10-7.385561544533E-14 3.000000000000E+00 4.050000000000E+05
     0.000000000000E+00-2.000000000000E+00 3.000000000000E+00 3.000000000000E+00
                       -2.386514097452E-09 3.539025783539E-08 8.550705388188E-08
     1.000000000000E+00 0.000000000000E+00 0.000000000000E+00 0.000000000000E+00
     4.050690000000E+05                                       0.000000000000E+00
> EPH C41 CNV2
C41 2026 04 16 16 00 00-9.394723456353E-04-2.309263891220E-13 0.000000000000E+00
     2.751827239990E-03 7.419140625000E+01 3.544254775295E-09 5.085896986310E-01
     3.661960363388E-06 1.792946655769E-03 8.514150977135E-06 5.282620942253E+03
     4.032000000000E+05 6.332993507385E-08-2.363104878518E+00 5.587935447693E-09
     9.861492677953E-01 2.007226562500E+02-1.074534461805E+00-6.732244710729E-09
     5.719881113150E-10-1.225113809926E-14 3.000000000000E+00 4.050000000000E+05
     0.000000000000E+00-2.000000000000E+00 3.000000000000E+00 3.000000000000E+00
                       -2.735760062933E-09-2.008164301515E-08 5.820766091347E-09
     1.500000000000E+01 0.000000000000E+00 0.000000000000E+00 0.000000000000E+00
     4.050690000000E+05                                       0.000000000000E+00
> EPH C27 CNV2
C27 2026 04 16 16 00 00 6.208700942807E-04 4.789058039023E-12 0.000000000000E+00
     1.978397369385E-03-9.123046875000E+01 4.711624829515E-09-6.768722147418E-01
    -4.434958100319E-06 7.445810479112E-04 9.508803486824E-07 5.282651460870E+03
     4.032000000000E+05 2.235174179077E-08 1.819930550087E+00-5.587935447693E-09
     9.487301186461E-01 3.354531250000E+02 1.456347769656E+00-7.649425772145E-09
    -3.585863651329E-10-1.454005180107E-14 3.000000000000E+00 4.050000000000E+05
     0.000000000000E+00-2.000000000000E+00 3.000000000000E+00 3.000000000000E+00
                       -2.619344741106E-09-1.047737896442E-09-9.487848728895E-09
     1.500000000000E+01 0.000000000000E+00 0.000000000000E+00 0.000000000000E+00
     4.050690000000E+05                                       0.000000000000E+00
> EPH C34 CNV2
C34 2026 04 16 16 00 00 9.265424450859E-04 7.932321466342E-12 0.000000000000E+00
     8.270740509033E-03-6.705078125000E+01 4.735911555440E-09 2.066554582968E+00
    -3.398396074772E-06 7.017956813797E-04 1.217238605022E-06 5.282611234150E+03
     4.032000000000E+05-7.264316082001E-08 1.779460742025E+00-4.563480615616E-08
     9.445183109331E-01 3.271718750000E+02 1.054515092786E+00-7.545135713759E-09
    -2.884048703633E-10-7.496737352907E-14 3.000000000000E+00 4.050000000000E+05
     0.000000000000E+00-2.000000000000E+00 3.000000000000E+00 3.000000000000E+00
                       -2.793967723846E-09-2.619344741106E-09-9.371433407068E-09
     1.500000000000E+01 0.000000000000E+00 0.000000000000E+00 0.000000000000E+00
     4.050690000000E+05                                       0.000000000000E+00
> EPH C21 CNV2
C21 2026 04 16 16 00 00-8.598348358646E-04 2.617461802856E-12 0.000000000000E+00
     8.831024169922E-03 6.808203125000E+01 3.392641317129E-09 2.086295042266E+00
     3.322958946228E-06 9.125813376158E-04 8.181668817997E-06 5.282628763812E+03
     4.032000000000E+05-4.190951585770E-08-2.356875980339E+00-2.607703208923E-08
     9.877462776772E-01 2.107890625000E+02-3.453247135776E-01-6.620632918793E-09
     5.273433945405E-10-6.781724310816E-14 3.000000000000E+00 4.050000000000E+05
     0.000000000000E+00-2.000000000000E+00 3.000000000000E+00 3.000000000000E+00
                       -3.550667315722E-09 1.490116119385E-08 1.164153218269E-10
     0.000000000000E+00 0.000000000000E+00 0.000000000000E+00 0.000000000000E+00
     4.050690000000E+05                                       0.000000000000E+00
> STO C05 D1D2
    2026 04 12 00 00 00 BDUT                                  UTC(NTSC)         
     4.053060000000E+05 0.000000000000E+00 0.000000000000E+00 0.000000000000E+00
